Service Point Name,Operations,Latitude,Longitude,Address
"John F. Kennedylaan 16, 2661JH te Bergschenhoek",Textile Collection,51.983927,4.504132,"16, John F. Kennedylaan, Dorp, Bergschenhoek, Lansingerland, South Holland, Netherlands, 2661 JH, Netherlands"
Droppie Den Haag Fahrenheitstraat,Textile Collection,52.077169,4.27058,"Bloemsierkunst Golden Belinda, Acaciastraat, Bomenbuurt, Segbroek, The Hague, South Holland, Netherlands, 2565 JZ, Netherlands"
Droppie Den Haag Savornin Lohmanplein,Textile Collection,52.066444,4.246014,"Winkelcentrum de Savornin Lohman, Thorbeckelaan, Vruchtenbuurt, Segbroek, The Hague, South Holland, Netherlands, 2564 AZ, Netherlands"
Droppie Den Haag Bergenstraat,Textile Collection,52.096854,4.270113,"39, Van Bergenstraat, Statenkwartier, Scheveningen, The Hague, South Holland, Netherlands, 2583 CS, Netherlands"
Droppie Den Haag Theresiastraat,Textile Collection,52.086389,4.337989,"Hoogvliet, 145, Theresiastraat, Bezuidenhout, Haagse Hout, The Hague, South Holland, Netherlands, 2593 AG, Netherlands"
Droppie Rotterdam,Textile Collection,51.932403,4.470968,"Voorburgstraat, Liskwartier, Noord, Rotterdam, South Holland, Netherlands, 3037 BS, Netherlands"
"Romenpad 9, 2652BX te Berkel en Rodenrijs",Textile Collection,51.995644,4.468342,"Romenpad 9, 2652 BX Berkel en Rodenrijs, Netherlands"
"Grutto 6, 2651ZD te Berkel en Rodenrijs",Textile Collection,51.987034,4.468877,"Grutto 6, 2651 ZD Berkel en Rodenrijs, Netherlands"
"de Olmen 17, 2661AT te Bergschenhoek",Textile Collection,51.990869,4.496734,"17, De Olmen, Bergsche Ackers, Bergschenhoek, Lansingerland, South Holland, Netherlands, 2661 AT, Netherlands"
"Valeriusplein 12, Alphen aan den Rijn",Textile Collection,52.14463,4.670255,"12, Valeriusplein, Componistenbuurt, Alphen aan den Rijn, South Holland, Netherlands, 2402 TL, Netherlands"
"Leeuwenhorststraat 27, 2665HM te Bleiswijk",Textile Collection,52.011451,4.540422,"Leeuwenhorststraat 27, 2665 HM Bleiswijk, Netherlands"
Kerksingel 3A Berkel en Rodenrijs,Textile Collection,51.993659,4.478371,"3a, Kerksingel, Parkwijk, Berkel, Berkel en Rodenrijs, Lansingerland, South Holland, Netherlands, 2651 CC, Netherlands"
"Pleinstraat 8, 2861X te Bergambacht",Textile Collection,51.935581,4.784688,"Pleinstraat 8, 2861 XH Bergambacht, Netherlands"
"Langeveldstraat 38, 2651GD te Berkel en Rodenrijs",Textile Collection,51.998591,4.486497,"Langeveldstraat 38, 2651 GD Berkel en Rodenrijs, Netherlands"
"Wethouder Schipperstraat 12, 2651EC te Berkel en Rodenrijs",Textile Collection,51.994877,4.481573,"Wethouder Schipperstraat 10, 2651 EC Berkel en Rodenrijs, Netherlands"
"Groene Loper 49, 2665VK te Bleiswijk",Textile Collection,52.011683,4.536111,"49, Groene Loper, De Tuinen, Bleiswijk, Lansingerland, South Holland, Netherlands, 2665 VK, Netherlands"
"Jaap ter Haarsingel 19, 2652GK te Berkel en Rodenrijs",Textile Collection,51.987757,4.460973,"19, Jaap ter Haarsingel, Gouden Griffel, Westpolder, Berkel en Rodenrijs, Lansingerland, South Holland, Netherlands, 2652 GK, Netherlands"
De Vlasbloem,Textile Collection,51.826474,4.252205,"Zoetemanring 55, 3214 GA Zuidland, Netherlands"
De Maasoever Emmy Belinfantestraat,Textile Collection,51.835296,4.366419,"1, Emmy Belinfantestraat, Maaswijk, Spijkenisse, Nissewaard, South Holland, Netherlands, 3207 HA, Netherlands"
De Maasoever Maaswijkweg,Textile Collection,51.837602,4.373391,"EQUANS, Maaswijkweg, 3207 Spijkenisse, Netherlands"
"urgemeester Gründemannstraat 1, 2651EB te Berkel en Rodenrijs",Textile Collection,51.99446,4.481715,"1, Burgemeester Gründemannstraat, Berkel, Berkel en Rodenrijs, Lansingerland, South Holland, Netherlands, 2651 EB, Netherlands"
"Rodenrijseweg 359, 2651B te Berkel en Rodenrijs",Textile Collection,51.978192,4.462134,"359, Rodenrijseweg, Parkwijk, Plaszoom, Berkel en Rodenrijs, Lansingerland, South Holland, Netherlands, 2651 BT, Netherlands"
"Schoolpad 1, 2651TM te Berkel en Rodenrijs",Textile Collection,52.000777,4.486037,"1, Schoolpad, Sterrenwijk, Berkel en Rodenrijs, Lansingerland, South Holland, Netherlands, 2651 TM, Netherlands"
"Kenenburgweg 95, 2665HX te Bleiswijk",Textile Collection,52.009634,4.53771,"95, Kenenburgweg, De Tuinen, Bleiswijk, Lansingerland, South Holland, Netherlands, 2665 HX, Netherlands"
"Louis Paul Boonstraat 71, 2652KC te Berkel en Rodenrijs",Textile Collection,51.98993,4.464437,"Louis Paul Boonstraat 71, 2652 KC Berkel en Rodenrijs, Netherlands"
"Aronskelkstraat 20-B, 3053XE te Rotterdam",Textile Collection,51.962192,4.466898,"Aronskelkstraat 20A, 3053 XE Rotterdam, Netherlands"
"Bladmos 23, 2661MG te Bergschenhoek",Textile Collection,51.992863,4.496914,"Bladmos 23, 2661 MG Bergschenhoek, Netherlands"
"Spaarnestraat 16, 2652DG te Berkel en Rodenrijs",Textile Collection,51.999261,4.469843,"Spaarnestraat 16, 2652 DG Berkel en Rodenrijs, Netherlands"
"Korenmolenweg 5-A, 2665CH te Bleiswijk",Textile Collection,52.017195,4.535907,"Korenmolenweg 5A, 2665 CH Bleiswijk, Netherlands"
AZC Gorinchem,Textile Collection,51.839393,5.020229,"Buys Ballotstraat 13, 4207 HT Gorinchem, Netherlands"
Middin Den Haag,Textile Collection,52.06562,4.277005,"Middin, Weesperstraat, Rustenburg, Rustenburg en Oostbroek, Escamp, The Hague, South Holland, Netherlands, 2574 VZ, Netherlands"
"Staccato 3, 2925BP te Krimpen aan den IJssel",Textile Collection,51.919147,4.615014,"Staccato 3, 2925 BP Krimpen aan den IJssel, Netherlands"
"Hordijklaan 13, 2652MA te Berkel en Rodenrijs",Textile Collection,51.980558,4.46768,"Hordijklaan 13, 2652 MA Berkel en Rodenrijs, Netherlands"
"Lavendel 5, 2925VA te Krimpen aan den IJssel",Textile Collection,51.920595,4.621009,"Lavendel 3, 2925 VA Krimpen aan den IJssel, Netherlands"
"Louis Paul Boonstraat 47, 2652KC te Berkel en Rodenrijs",Textile Collection,51.989582,4.463658,"47, Louis Paul Boonstraat, Gouden Uil, Westpolder, Berkel en Rodenrijs, Lansingerland, South Holland, Netherlands, 2652 KC, Netherlands"
Bizzwear Summa College,Textile Collection,51.961926,4.583674,"122, Dalkruidbaan, Schollevaar, Capelle aan den IJssel, South Holland, Netherlands, 2908 KC, Netherlands"
Bizzwear Gemeente Eindhoven,Textile Collection,51.961926,4.583674,"122, Dalkruidbaan, Schollevaar, Capelle aan den IJssel, South Holland, Netherlands, 2908 KC, Netherlands"
Bizzwear Gemeente Amsterdam,Textile Collection,51.961926,4.583674,"122, Dalkruidbaan, Schollevaar, Capelle aan den IJssel, South Holland, Netherlands, 2908 KC, Netherlands"
"Langeweg 8, Stellendam",Textile Collection,51.799476,4.028724,"8, Langeweg, De Vlugtheuvel, Stellendam, Goeree-Overflakkee, South Holland, Netherlands, 3251 LH, Netherlands"
"Korte Dreef 6, 2941SH te Lekkerkerk",Textile Collection,51.89735,4.677201,"6, Korte Dreef, Lekkerkerk, Krimpenerwaard, South Holland, Netherlands, 2941 SH, Netherlands"
"Laan der Vrijheid 31, 2661HH te Bergschenhoek",Textile Collection,51.987521,4.503642,"31, Laan der Vrijheid, Dorp, Bergschenhoek, Lansingerland, South Holland, Netherlands, 2661 HH, Netherlands"
"Luijtensstraat 8, 2651EH te Berkel en Rodenrijs",Textile Collection,51.996043,4.483162,"8, Luijtensstraat, Berkel, Berkel en Rodenrijs, Lansingerland, South Holland, Netherlands, 2651 EH, Netherlands"
"Notaris Kruytstraat 6, 2661HP te Bergschenhoek",Textile Collection,51.987232,4.503062,"6, Notaris Kruytstraat, Dorp, Bergschenhoek, Lansingerland, South Holland, Netherlands, 2661 HP, Netherlands"
"de Blankvoorn 8, 2661KB te Bergschenhoek",Textile Collection,51.991189,4.494218,"De Blankvoorn 8, 2661 KB Bergschenhoek, Netherlands"
"Mesdagstraat 2, 2661SM te Bergschenhoek",Textile Collection,51.997494,4.504178,"Mesdagstraat 2, 2661 SM Bergschenhoek, Netherlands"
stichting Moslim Informatie Centrum Nederland,Textile Collection,52.074249,4.281333,"Beeklaan 207, 2562 AE The Hague, Netherlands"
"de Berken 18, 2661AW te Bergschenhoek",Textile Collection,51.989862,4.495498,"De Berken 18, 2661 AW Bergschenhoek, Netherlands"
"Clingendaelsingel 1, 2665HT te Bleiswijk",Textile Collection,52.010171,4.536987,"Clingendaelsingel 1, 2665 HT Bleiswijk, Netherlands"
"Eiberplein 57, 2661BP te Bergschenhoek",Textile Collection,51.983271,4.501392,"57, Eiberplein, Dorp, Bergschenhoek, Lansingerland, South Holland, Netherlands, 2661 BP, Netherlands"
Terre des Hommes Rotterdam,Textile Collection,51.958058,4.49466,"109B, Bergse Dorpsstraat, Hillegersberg-Noord, Hillegersberg-Schiebroek, Rotterdam, South Holland, Netherlands, 3054 GC, Netherlands"
Droppie Smaragdplein,Textile Collection,52.072648,5.124026,"Smaragdplein, Tolsteeg, Utrecht, Netherlands, 3523 EH, Netherlands"
Droppie Bos en Lommer,Textile Collection,52.378631,4.846397,"Endam moda, Bos en Lommerplein, Bosleeuw, Landlust, West, Amsterdam, North Holland, Netherlands, 1055 EK, Netherlands"
"Roos 62, 2925XH te Krimpen aan den IJssel (gemeente Krimpen aan den IJssel",Textile Collection,51.919641,4.623237,"62, Roos, Krimpen aan den IJssel, South Holland, Netherlands, 2925 XH, Netherlands"
"Beukenlaan 135, 2665DW te Bleiswijk",Textile Collection,52.006344,4.546076,"135, Beukenlaan, Hoekeindse Zoom, Bleiswijk, Lansingerland, South Holland, Netherlands, 2665 DW, Netherlands"
"Rijsdijk 29-A, 2931AW te Krimpen aan de Lek",Textile Collection,51.892431,4.629961,"29a, Rijsdijk, Krimpen aan de Lek, Krimpenerwaard, South Holland, Netherlands, 2931 AW, Netherlands"
"Rozenpad 74, 2651XB te Berkel en Rodenrijs",Textile Collection,51.984715,4.463783,"74, Rozenpad, Bloemenwijk, Berkel en Rodenrijs, Lansingerland, South Holland, Netherlands, 2651 XB, Netherlands"
"Ton Lutzstraat 27, 2652LJ te Berkel en Rodenrijs",Textile Collection,51.984143,4.450352,"32, Louis d'Orlaan, Gouden Podium, Westpolder, Berkel en Rodenrijs, Lansingerland, South Holland, Netherlands, 2652 LB, Netherlands"
"Noordeindseweg 123-A, 2651LG te Berkel en Rodenrijs",Textile Collection,52.030441,4.477454,"Noordeindseweg 123a, 2651 Berkel en Rodenrijs, Netherlands"
"Nachtegaallaan 30, 2665EH te Bleiswijk",Textile Collection,52.007356,4.536576,"Nachtegaallaan 28, 2665 EH Bleiswijk, Netherlands"
"Tinbergenlaan 7, 2871KA te Schoonhoven",Textile Collection,51.949716,4.842002,"Tinbergenlaan 7, 2871 KA Schoonhoven, Netherlands"
Terre des Hommes Barneveld,Textile Collection,52.141487,5.586306,"Catharijnesteeg 14B, 3771 JT Barneveld, Netherlands"
"Spinel 32, 2651RT te Berkel en Rodenrijs",Textile Collection,52.005843,4.495413,"Spinel 34, 2651 RT Berkel en Rodenrijs, Netherlands"
Terre des Hommes Amersfoort,Textile Collection,52.1585,5.397061,"Kamp 79, 3811 AP Amersfoort, Netherlands"
"Beukenlaan 99, 2665DX te Bleiswijk",Textile Collection,52.005228,4.545443,"Beukenlaan 97, 2665 DX Bleiswijk, Netherlands"
Hoftijzer Vastgoedonderhoud,Textile Collection,51.966588,4.467845,"Veldkersweg 29, 3053 JR Rotterdam, Netherlands"
"Huijgenslaan 15, 2651EV te Berkel en Rodenrijs",Textile Collection,51.997253,4.484532,"Huijgenslaan 15, 2651 EV Berkel en Rodenrijs, Netherlands"
"Bremstraat 15, 2652MC te Berkel en Rodenrijs",Textile Collection,51.980065,4.467404,"Bremstraat 13, 2652 MC Berkel en Rodenrijs, Netherlands"
"Astersingel 13, 2651PH te Berkel en Rodenrijs",Textile Collection,51.982466,4.46798,"Astersingel 13, 2651 PH Berkel en Rodenrijs, Netherlands"
"Gouden Harplaan 8, 2652NA te Berkel en Rodenrijs",Textile Collection,51.993979,4.455208,"Gouden Harplaan 10, 2652 NA Berkel en Rodenrijs, Netherlands"
"Oostmeerlaan 132, 2652AE te Berkel en Rodenrijs",Textile Collection,52.00049,4.465797,"Oostmeerlaan 132, 2652 AE Berkel en Rodenrijs, Netherlands"
"Louis d'Orlaan 20, 2652LB te Berkel en Rodenrijs",Textile Collection,51.983732,4.450557,"Louis d'Orlaan 20, 2652 LB Berkel en Rodenrijs, Netherlands"
"van Naeldwijcklaan 67, 2651GM te Berkel en Rodenrijs",Textile Collection,51.999628,4.484971,"Van Naeldwijcklaan 67, 2651 GM Berkel en Rodenrijs, Netherlands"
Spijkenisse Scouts,Textile Collection,51.858329,4.334249,"Tennispad 2, 3202 LP Spijkenisse, Netherlands"
"Carry van Bruggenplantsoen 4, 2652KB te Berkel en Rodenrijs",Textile Collection,51.990506,4.464628,"Carry van Bruggenplantsoen 6, 2652 KB Berkel en Rodenrijs, Netherlands"
"Burgemeester Gründemannstraat 1, 2651EB te Berkel en Rodenrijs",Textile Collection,51.99446,4.481715,"51.99446, 4.481715"
"Weteringsingel 6, 2921BB te Krimpen aan den IJssel",Textile Collection,51.913719,4.582867,"6, Weteringsingel, Krimpen aan den IJssel, South Holland, Netherlands, 2921 BB, Netherlands"
"De Vaert 2, 2651EP te Berkel en Rodenrijs",Textile Collection,51.995841,4.480096,"2, De Vaert, Parkwijk, Berkel, Berkel en Rodenrijs, Lansingerland, South Holland, Netherlands, 2651 EP, Netherlands"
Scoutinggroep The Rangers Rotterdam,Textile Collection,51.884403,4.506416,"51.884403, 4.506416"
Spullenhulp Soest,Textile Collection,52.181193,5.309209,"52.181193, 5.309209"
Terre des Hommes Den Bosch,Textile Collection,51.686402,5.29892,"51.686402, 5.29892"
Terre des Hommes Deventer,Textile Collection,52.259511,6.148249,"52.259511, 6.148249"
Terre des Hommes Nijmegen,Textile Collection,51.846977,5.861527,"51.846977, 5.861527"
Terre des Hommes Eindhoven,Textile Collection,51.425762,5.489521,"51.425762, 5.489521"
Terre des Hommes Hoofddorp,Textile Collection,52.303758,4.692036,"52.303758, 4.692036"
"Groene Loper 9, 2665VK te Bleiswijk",Textile Collection,52.008832,4.533564,"52.008832, 4.533564"
"Weegbreeplantsoen 11, 2651MA te BERKEL EN RODENRIJS",Textile Collection,51.991275,4.465943,"51.991275, 4.465943"
Quist Schoenen & Outdoor Numansdorp,Textile Collection,51.726839,4.437475,"51.726839, 4.437475"
"Haverveld 64, 2661VC te Bergschenhoek",Textile Collection,51.989399,4.492426,"51.989399, 4.492426"
"Weegbreeplantsoen 9, 2651MA te Berkel en Rodenrijs",Textile Collection,51.9908,4.358606,"51.9908, 4.358606"
"Fluitekruid 3, 2661JB te Bergschenhoek",Textile Collection,51.985507,4.503857,"51.985507, 4.503857"
"Zuidersingel 26, 2651AJ te Berkel En Rodenrijs",Textile Collection,51.97449,4.452043,"51.97449, 4.452043"
"Oostmeerlaan 144, 2652AE te Berkel en Rodenrijs",Textile Collection,52.000653,4.466193,"52.000653, 4.466193"
Terre des Hommes Velp,Textile Collection,51.995761,5.972784,"51.995761, 5.972784"
"Maasstraat 15, 2652DD te Berkel en Rodenrijs",Textile Collection,52.000341,4.468702,"52.000341, 4.468702"
Kayori Nijmegen,Textile Collection,51.831437,5.856871,"51.831437, 5.856871"
"Castor 60, 2651GW te Berkel en Rodenrijs",Textile Collection,52.003584,4.485655,"52.003584, 4.485655"
Terre des Hommes Arnhem,Textile Collection,51.987191,5.914272,"51.987191, 5.914272"
Droppie - Recyclewinkel,Textile Collection,52.384312,4.875427,"52.384312, 4.875427"
Uitzendbureau Wanted,Textile Collection,51.851559,4.304317,"51.851559, 4.304317"
"Jan Lutmastraat 26, 2871WR te Schoonhoven",Textile Collection,51.9532275,4.8467685,"26, Jan Lutmastraat, Schoonhoven, Krimpenerwaard, South Holland, Netherlands, 2871 WR, Netherlands"
Terres des Hommes Pijnacker,Textile Collection,52.0178403,4.4349961,"1, van Brachtstraat, Pijnacker, Pijnacker-Nootdorp, South Holland, Netherlands, 2641 HG, Netherlands"
Workman - Dupal,Textile Collection,51.6935407,5.0493258,"9, Havenweg, Haven, Waalwijk, North Brabant, Netherlands, 5145 NJ, Netherlands"
"Willem Duysplaats 26, 2652NE te Berkel en Rodenrijs",Textile Collection,51.9937116,4.4583835,"26, Willem Duysplaats, Gouden Harp, Westpolder, Berkel en Rodenrijs, Lansingerland, South Holland, Netherlands, 2652 NE, Netherlands"
"Loodsmandreef 28, 2661SW te Bergschenhoek",Textile Collection,51.9939811,4.5036567,"40, Loodsmandreef, Oosteindsche Ackers, Bergschenhoek, Lansingerland, South Holland, Netherlands, 2661 SW, Netherlands"
"Andrea Domburgsingel 19, 2651ZJ te Berkel en Rodenrijs",Textile Collection,51.983833,4.4533514,"19, Andrea Domburgsingel, Gouden Podium, Westpolder, Berkel en Rodenrijs, Lansingerland, South Holland, Netherlands, 2651 ZJ, Netherlands"
"Adelaarsvaren 77, 2661PD te Bergschenhoek",Textile Collection,51.9936791,4.4979014,"77, Adelaarsvaren, Bergsche Ackers, Bergschenhoek, Lansingerland, South Holland, Netherlands, 2661 PD, Netherlands"
RET Krimpen a/d IJssel,Textile Collection,51.9061311,4.5774226,"4, Industrieweg, Stormpolder, Krimpen aan den IJssel, South Holland, Netherlands, 2921 LB, Netherlands"
RET Waalhaven,Textile Collection,51.8695232,4.4477931,"651, Schulpweg, RET remise Waalhaven, Charlois, Rotterdam, South Holland, Netherlands, 3088 NA, Netherlands"
RET Sluisjesdijk,Textile Collection,51.8938142,4.4610919,"Waalhaven Noordzijde, Charlois, Rotterdam, South Holland, Netherlands, 3087 AH, Netherlands"
"Vogelwikke 6, 2661JE te Bergschenhoek",Textile Collection,51.9853507,4.5052169,"6, Vogelwikke, Dorp, Bergschenhoek, Lansingerland, South Holland, Netherlands, 2661 JE, Netherlands"
"Irispark 59, 2651PS te Berkel en Rodenrijs",Textile Collection,51.9802385,4.4633319,"59, Irispark, Bloemenwijk, Berkel en Rodenrijs, Lansingerland, South Holland, Netherlands, 2651 PS, Netherlands"
"Zilvergracht 4, 2652KE te Berkel en Rodenrijs",Textile Collection,51.98982,4.4623385,"4, Zilvergracht, Gouden Uil, Westpolder, Berkel en Rodenrijs, Lansingerland, South Holland, Netherlands, 2652 KE, Netherlands"
"Langeveldstraat 10, 2651GD te Berkel en Rodenrijs",Textile Collection,51.9978693,4.4858719,"10, Langeveldstraat, Berkel, Berkel en Rodenrijs, Lansingerland, South Holland, Netherlands, 2651 GD, Netherlands"
World of Walking Made,Textile Collection,51.6768194,4.7913444,"The World of Walking, 14, Nieuwstraat, Made, Drimmelen, North Brabant, Netherlands, 4921 CX, Netherlands"
"Van Vredenburchlaan 56, 2661VB te Bergschenhoek",Textile Collection,51.9886888,4.4920263,"40, Van Vredenburchlaan, Boterdorp, Bergschenhoek, Lansingerland, South Holland, Netherlands, 2661 VB, Netherlands"
"Zuidersingel 70, 2651AK te Berkel en Rodenrijs",Textile Collection,51.9724456,4.4429233,"70, Zuidersingel, Berkel en Rodenrijs, Lansingerland, South Holland, Netherlands, 2651 AK, Netherlands"
"Meidoornstraat 25, 2665DM te Bleiswijk",Textile Collection,52.008489,4.5451237,"25, Meidoornstraat, Hoekeindse Zoom, Bleiswijk, Lansingerland, South Holland, Netherlands, 2665 DM, Netherlands"
"Goudseweg 108, 2821NB te Stolwijk",Textile Collection,51.9845417,4.7544204,"108, Goudseweg, Bilwijk, Stolwijk, Krimpenerwaard, South Holland, Netherlands, 2821 NB, Netherlands"
"Lange Stoep 29, 2941AE te Lekkerkerk",Textile Collection,51.8957493,4.6832515,"29, Lange Stoep, Lekkerkerk, Krimpenerwaard, South Holland, Netherlands, 2941 AE, Netherlands"
RET Oostzeedijk,Textile Collection,51.9205873,4.5096488,"100, Oostzeedijk, Kralingen-Oost, Kralingen-Crooswijk, Rotterdam, South Holland, Netherlands, 3063 BG, Netherlands"
RET Laan op Zuid,Textile Collection,51.9082942,4.4946186,"364, S. van Ravesteynkade, Kop van Zuid, Feijenoord, Rotterdam, South Holland, Netherlands, 3071 ML, Netherlands"
"Muiderstraat 74, 2652BW te Berkel en Rodenrijs",Textile Collection,51.9961655,4.4663969,"50, Muiderstraat, Parkwijk, Berkel, Berkel en Rodenrijs, Lansingerland, South Holland, Netherlands, 2652 BV, Netherlands"
"Waterkers 24, 2925TJ te Krimpen aan den IJssel",Textile Collection,51.9222767,4.6268958,"24, Waterkers, Krimpen aan den IJssel, South Holland, Netherlands, 2925 TJ, Netherlands"
"Oudelandselaan 127, 2652CJ te Berkel en Rodenrijs",Textile Collection,51.9961714,4.4724269,"125, Oudelandselaan, Parkwijk, Berkel, Berkel en Rodenrijs, Lansingerland, South Holland, Netherlands, 2652 CJ, Netherlands"
"Slufterhof 13, 2651NK te Berkel en Rodenrijs",Textile Collection,51.9815755,4.4696833,"13, Slufterhof, Parc Rodenrijs, Berkel en Rodenrijs, Lansingerland, South Holland, Netherlands, 2651 NK, Netherlands"
"Hondsroos 11, 2651 XE te Berkel en Rodenrijs",Textile Collection,51.9836557,4.4613872,"11, Hondsroos, Bloemenwijk, Berkel en Rodenrijs, Lansingerland, South Holland, Netherlands, 2651 XE, Netherlands"
"Futendreef 21, 2665 EP te Bleiswijk",Textile Collection,52.0069477,4.5380856,"23, Futendreef, Oosthoekeind, Bleiswijk, Lansingerland, South Holland, Netherlands, 2665 EP, Netherlands"
"Van Keulendreef 33, 2661ST te Bergschenhoek",Textile Collection,51.9938588,4.502904,"33, Van Keulendreef, Oosteindsche Ackers, Bergschenhoek, Lansingerland, South Holland, Netherlands, 2661 ST, Netherlands"
"Havenstraat 47, 2652BR te Berkel en Rodenrijs",Textile Collection,51.9961806,4.4634871,"47, Havenstraat, Parkwijk, Havenwijk, Berkel en Rodenrijs, Lansingerland, South Holland, Netherlands, 2652 BR, Netherlands"
"Achterom 31, 2651JH te Berkel en Rodenrijs",Textile Collection,51.995217,4.4754594,"Primera, 5, Achterom, Parkwijk, Berkel, Berkel en Rodenrijs, Lansingerland, South Holland, Netherlands, 2651 EL, Netherlands"
"Watermolen 5, 2661LA te Bergschenhoek",Textile Collection,51.9904547,4.502335,"5, Watermolen, Bergsche Ackers, Bergschenhoek, Lansingerland, South Holland, Netherlands, 2661 LA, Netherlands"
"Bergweg-zuid 108, 2661CV te Bergschenhoek",Textile Collection,51.9734574,4.49601,"108, Bergweg-zuid, Bergschenhoek, Lansingerland, South Holland, Netherlands, 2661 CV, Netherlands"
"Irislaan 82, 2651PR te Berkel en Rodenrijs",Textile Collection,51.9809929,4.4637321,"82, Irislaan, Parc Rodenrijs, Berkel en Rodenrijs, Lansingerland, South Holland, Netherlands, 2651 PR, Netherlands"
"Planetenweg 53, 2651JB te Berkel en Rodenrijs",Textile Collection,52.0066871,4.491452,"53, Planetenweg, Sterrenwijk, Berkel en Rodenrijs, Lansingerland, South Holland, Netherlands, 2651 JB, Netherlands"
"Jupiter 75-A, 2651HK te Berkel en Rodenrijs",Textile Collection,52.0055385,4.4868086,"75, Jupiter, Sterrenwijk, Berkel en Rodenrijs, Lansingerland, South Holland, Netherlands, 2651 HK, Netherlands"
"Arendshof 14, 2651WL te Berkel en Rodenrijs",Textile Collection,51.9864904,4.4659067,"14, Arendshof, Vogelwijk, Berkel en Rodenrijs, Lansingerland, South Holland, Netherlands, 2651 WL, Netherlands"
"Castor 13, 2651GT te Berkel en Rodenrijs",Textile Collection,52.0032025,4.4874875,"Castor, Sterrenwijk, Berkel en Rodenrijs, Lansingerland, South Holland, Netherlands, 2651 GZ, Netherlands"
"Zwanebloemstraat 27, 2651MG te Berkel en Rodenrijs",Textile Collection,51.9886893,4.4680203,"27, Zwanebloemstraat, Parkwijk, Weidebloemwijk, Berkel en Rodenrijs, Lansingerland, South Holland, Netherlands, 2651 MG, Netherlands"
"Orteliusdreef 84, 2661RM te Bergschenhoek",Textile Collection,51.9972466,4.5003557,"84, Orteliusdreef, De Ackers, Bergschenhoek, Lansingerland, South Holland, Netherlands, 2661 RM, Netherlands"
"Noorderkroon 13, 2665BW te Bleiswijk",Textile Collection,52.0101118,4.5479192,"13, Noorderkroon, Hoekeindse Zoom, Bleiswijk, Lansingerland, South Holland, Netherlands, 2665 BW, Netherlands"
"Johan van Oldenbarneveltlaan 26, 2651DD te Berkel en Rodenrijs",Textile Collection,51.9913688,4.4760626,"26, Johan van Oldenbarneveltlaan, Parkwijk, Berkel, Berkel en Rodenrijs, Lansingerland, South Holland, Netherlands, 2651 DD, Netherlands"
"Clausstraat 14, 2661BZ te Bergschenhoek",Textile Collection,51.9895366,4.5034206,"14, Clausstraat, Dorp, Bergschenhoek, Lansingerland, South Holland, Netherlands, 2661 BZ, Netherlands"
"Beukvaren 29, 2661PE te Bergschenhoek",Textile Collection,51.9953725,4.4980471,"29, Beukvaren, De Ackers, Bergschenhoek, Lansingerland, South Holland, Netherlands, 2661 PE, Netherlands"
"van Goghlaan 17, 2661SC te Bergschenhoek",Textile Collection,51.9968759,4.5039242,"17, van Goghlaan, Oosteindsche Ackers, Bergschenhoek, Lansingerland, South Holland, Netherlands, 2661 SC, Netherlands"
"Edelsteenweg 41, 2651SP te Berkel en Rodenrijs",Textile Collection,52.005362,4.4944391,"39, Edelsteenweg, Edelsteenwijk, Berkel en Rodenrijs, Lansingerland, South Holland, Netherlands, 2651 SP, Netherlands"
"Lekplantsoen 7, 2652AG te Berkel en Rodenrijs",Textile Collection,52.0009711,4.4665576,"3, Lekplantsoen, Parkwijk, Rivierenwijk, Berkel en Rodenrijs, Lansingerland, South Holland, Netherlands, 2652 AG, Netherlands"
"Oosterscheldestraat 90, 2652JG te Berkel en Rodenrijs",Textile Collection,51.9998961,4.4702446,"92, Oosterscheldestraat, Parkwijk, Rivierenwijk, Berkel en Rodenrijs, Lansingerland, South Holland, Netherlands, 2652 JG, Netherlands"
"Mesdagstraat 12, 2665XK te Bleiswijk",Textile Collection,52.008787,4.5254074,"12, Mesdagstraat, Bleiswijk, Lansingerland, South Holland, Netherlands, 2665 XK, Netherlands"
"Saffier 74, 2651SX te Berkel en Rodenrijs",Textile Collection,52.0041738,4.4981745,"74, Saffier, Edelsteenwijk, Berkel en Rodenrijs, Lansingerland, South Holland, Netherlands, 2651 SX, Netherlands"
"Waghenaerdreef 104, 2661RB te Bergschenhoek",Textile Collection,51.9964172,4.4974116,"106, Waghenaerdreef, De Ackers, Bergschenhoek, Lansingerland, South Holland, Netherlands, 2661 RB, Netherlands"
Wereldkidz Tweesprong,Textile Collection,52.1335773,5.0252682,"OBS Daltonschool Maarssen, Duivenkamp, Maarssenbroek, Maarssen, Stichtse Vecht, Utrecht, Netherlands, 3607 BM, Netherlands"
"Emmastraat 33, 2665CR te Bleiswijk",Textile Collection,52.0072716,4.5306289,"33, Emmastraat, De Tuinen, Bleiswijk, Lansingerland, South Holland, Netherlands, 2665 CR, Netherlands"
"Witte de Withstraat 15, 2665AH te Bleiswijk",Textile Collection,52.0143172,4.5287951,"15, Witte de Withstraat, De Tuinen, Bleiswijk, Lansingerland, South Holland, Netherlands, 2665 AH, Netherlands"
"Vijverlaan 373, 2923TK te Krimpen aan den IJssel",Textile Collection,51.9135046,4.6153129,"385, Vijverlaan, Krimpen aan den IJssel, South Holland, Netherlands, 2923 TL, Netherlands"
"Europasingel 22, 2661BW te Bergschenhoek",Textile Collection,51.9849449,4.5060273,"22, Europasingel, Dorp, Bergschenhoek, Lansingerland, South Holland, Netherlands, 2661 BW, Netherlands"
"Bosplaatstraat 16, 2651NR te Berkel en Rodenrijs",Textile Collection,51.9881716,4.4745494,"16, Bosplaatstraat, Parkwijk, Plaszoom, Berkel en Rodenrijs, Lansingerland, South Holland, Netherlands, 2651 NR, Netherlands"
"Oostmeerlaan 61, 2652CV te Berkel en Rodenrijs",Textile Collection,51.9985305,4.4625258,"61, Oostmeerlaan, Parkwijk, Meerpolder, Berkel en Rodenrijs, Lansingerland, South Holland, Netherlands, 2652 CV, Netherlands"
"Pijlkruidstraat 32, 2651MR te Berkel en Rodenrijs",Textile Collection,51.9898427,4.4676813,"32, Pijlkruidstraat, Parkwijk, Weidebloemwijk, Berkel en Rodenrijs, Lansingerland, South Holland, Netherlands, 2651 MR, Netherlands"
NGK Het Baken,Textile Collection,51.9934092,4.5136473,"Het Baken, Anthonie van Dijcklaan, Oosteindsche Ackers, Bergschenhoek, Lansingerland, South Holland, Netherlands, 2661 TP, Netherlands"
De Regenboog,Textile Collection,52.2561357,4.4886896,"De Regenboog, Ambachtsweg, Noordwijkerhout, Noordwijk, South Holland, Netherlands, 2211 JK, Netherlands"
Wereldwijs,Textile Collection,52.2313789,4.4383003,"Wereldwijs, Strandplevier, Het Vinkeveld, Noordwijk-Binnen, Noordwijk, South Holland, Netherlands, 2201 XJ, Netherlands"
"Sterrenweg 3-B, 2651HZ te Berkel en Rodenrijs",Textile Collection,52.0029543,4.4843032,"3b, Sterrenweg, Sterrenwijk, Berkel en Rodenrijs, Lansingerland, South Holland, Netherlands, 2651 HZ, Netherlands"
"Oostmeerlaan 50, 2652AD te Berkel en Rodenrijs",Textile Collection,51.99975,4.463572,"50, Oostmeerlaan, Parkwijk, Rivierenwijk, Berkel en Rodenrijs, Lansingerland, South Holland, Netherlands, 2652 AD, Netherlands"
"Opaal 28, 2651SN te Berkel en Rodenrijs",Textile Collection,52.0041228,4.4951919,"28, Opaal, Edelsteenwijk, Berkel en Rodenrijs, Lansingerland, South Holland, Netherlands, 2651 SN, Netherlands"
"Blauwborst 29, 2651RD te Berkel en Rodenrijs",Textile Collection,51.9879718,4.4658234,"29, Blauwborst, Parkwijk, Vogelwijk, Berkel en Rodenrijs, Lansingerland, South Holland, Netherlands, 2651 RD, Netherlands"
"Smaragd 58, 2651RW te Berkel en Rodenrijs",Textile Collection,52.0051578,4.496818,"60, Smaragd, Edelsteenwijk, Berkel en Rodenrijs, Lansingerland, South Holland, Netherlands, 2651 RW, Netherlands"
"Koestraat 119, 2871DP te Schoonhoven",Textile Collection,51.9482467,4.8504384,"119, Koestraat, Schoonhoven, Krimpenerwaard, South Holland, Netherlands, 2871 DP, Netherlands"
"Verfmolen 7, 2665SC te Bleiswijk",Textile Collection,52.0150933,4.545064,"7, Verfmolen, Korenmolenhoek, Bleiswijk, Lansingerland, South Holland, Netherlands, 2665 SC, Netherlands"
"Lies Frankenweg 24, 2652LS te Berkel en Rodenrijs",Textile Collection,51.9859291,4.4521726,"24, Lies Frankenweg, Gouden Podium, Westpolder, Berkel en Rodenrijs, Lansingerland, South Holland, Netherlands, 2652 LS, Netherlands"
"Harry Banninklaan 64, 2652NB te Berkel en Rodenrijs",Textile Collection,51.9940021,4.4531139,"64, Harry Banninklaan, Gouden Harp, Westpolder, Berkel en Rodenrijs, Lansingerland, South Holland, Netherlands, 2652 NB, Netherlands"
"De Eilanden 76, 2662AP te Bergschenhoek",Textile Collection,51.9873107,4.4920491,"77, De Eilanden, Eilandenbuurt, Bergschenhoek, Lansingerland, South Holland, Netherlands, 2662 AP, Netherlands"
"van der Hoevenlaan 15, 2651DE te Berkel en Rodenrijs",Textile Collection,51.9913761,4.4776484,"15, van der Hoevenlaan, Parkwijk, Berkel, Berkel en Rodenrijs, Lansingerland, South Holland, Netherlands, 2651 DE, Netherlands"
"Tjeerd Kuipersstraat 14, 2662GM te Bergschenhoek",Textile Collection,51.9934251,4.4910779,"14, Tjeerd Kuipersstraat, Beemdenbuurt, Bergschenhoek, Lansingerland, South Holland, Netherlands, 2662 GM, Netherlands"
"Koekoeksbloemstraat 6, 2651ME te Berkel en Rodenrijs",Textile Collection,51.9913086,4.4678892,"6, Koekoeksbloemstraat, Parkwijk, Weidebloemwijk, Berkel en Rodenrijs, Lansingerland, South Holland, Netherlands, 2651 ME, Netherlands"
"Maria enzersdorflaan 39, 2661 te Bergschenhoek",Textile Collection,51.9911265,4.4904351,"39, Maria Enzersdorflaan, Boterdorpse Zoom, Bergschenhoek, Lansingerland, South Holland, Netherlands, 2661 KP, Netherlands"
"Berkelsekade 13, 2652CS te Berkel en Rodenrijs",Textile Collection,51.9978565,4.4628648,"14, Berkelsekade, Parkwijk, Meerpolder, Berkel en Rodenrijs, Lansingerland, South Holland, Netherlands, 2652 CS, Netherlands"
"Rietveldstraat 257, 2662HN te Bergschenhoek",Textile Collection,51.9966949,4.4944791,"201, Rietveldstraat, Ackerse Zoom, Bergschenhoek, Lansingerland, South Holland, Netherlands, 2662 HL, Netherlands"
"Louis Paul Boonstraat 59, 2652KC te Berkel en Rodenrijs",Textile Collection,51.9894553,4.4642277,"59, Louis Paul Boonstraat, Gouden Uil, Westpolder, Berkel en Rodenrijs, Lansingerland, South Holland, Netherlands, 2652 KC, Netherlands"
"Nachtegaallaan 79, 2665EG te Bleiswijk",Textile Collection,52.007467,4.5388049,"79, Nachtegaallaan, Oosthoekeind, Bleiswijk, Lansingerland, South Holland, Netherlands, 2665 EG, Netherlands"
"Rembrandtlaan 7, 2661SJ te Bergschenhoek",Textile Collection,51.9991445,4.5017783,"7, Rembrandtlaan, Oosteindsche Ackers, Bergschenhoek, Lansingerland, South Holland, Netherlands, 2661 SJ, Netherlands"
"Beukenlaan 221, 2665DG te Bleiswijk",Textile Collection,52.0094472,4.5469392,"221, Beukenlaan, Hoekeindse Zoom, Bleiswijk, Lansingerland, South Holland, Netherlands, 2665 DG, Netherlands"
"Nachtegaallaan 94, 2665EJ te Bleiswijk",Textile Collection,52.0081208,4.5394272,"67, Gruttostraat, Oosthoekeind, Bleiswijk, Lansingerland, South Holland, Netherlands, 2665 EL, Netherlands"
"Walmolen 20, 2665SE te Bleiswijk",Textile Collection,52.01448,4.5447476,"20, Walmolen, Korenmolenhoek, Bleiswijk, Lansingerland, South Holland, Netherlands, 2665 SE, Netherlands"
"Julianalaan 95, 2661EK te Bergschenhoek",Textile Collection,51.9867921,4.5072174,"95, Julianalaan, Dorp, Bergschenhoek, Lansingerland, South Holland, Netherlands, 2661 EK, Netherlands"
"Frans Halslaan 12, 2661RX te Bergschenhoek",Textile Collection,51.9980693,4.5014775,"12, Frans Halslaan, Oosteindsche Ackers, Bergschenhoek, Lansingerland, South Holland, Netherlands, 2661 RX, Netherlands"
Reakt,Textile Collection,51.8490731,4.3975212,"74, Albrandswaardsedijk, Poortugaal, Albrandswaard, South Holland, Netherlands, 3172 TJ, Netherlands"
"Spechtstraat 6, Haastrecht",Textile Collection,51.997513,4.7750683,"4, Spechtstraat, Haastrecht, Krimpenerwaard, South Holland, Netherlands, 2851 VL, Netherlands"
Stichting Linquenda,Textile Collection,52.0361219,4.8668229,"10, Kastanjeweg, Tappersheul, Oudewater, Utrecht, Netherlands, 3421 TD, Netherlands"
Blauwe Aventurijn,Textile Collection,52.0689128,5.1276213,"Basisschool de Blauwe Aventurijn, Huis ten Boschlaan, Tolsteeg en Rotsoord, Utrecht, Netherlands, 3523 HM, Netherlands"
Manfree,Textile Collection,52.6893694,4.8345602,"24, Newtonstraat, Bedrijventerrein, Pannekeet, Heerhugowaard, Dijk en Waard, North Holland, Netherlands, 1704 SB, Netherlands"
Love4yourcloset (nr. 9),Textile Collection,52.0444865,4.6613766,"11, Maalderij, Zeeheldenbuurt, Waddinxveen, South Holland, Netherlands, 2741 LL, Netherlands"
SV Charlois,Textile Collection,51.8789937,4.47205,"SV Charlois, 665, Oldegaarde, Charlois, Rotterdam, South Holland, Netherlands, 3084 AA, Netherlands"
Trelleborg Ridderkerk,Textile Collection,51.8684622,4.6041801,"15, Verlengde Kerkweg, Ridderkerk, South Holland, Netherlands, 2985 AZ, Netherlands"
Kerk Woubrugge elektronica,Textile Collection,52.1699021,4.6383971,"PKN Gereformeerd, van Hemessenkade, Woubrugge, Kaag en Braassem, South Holland, Netherlands, 2481 BH, Netherlands"
Voorwegschool,Textile Collection,52.342925,4.6238294,"Basisschool Voorweg, Voorweg, Heemstede, North Holland, Netherlands, 2103 SR, Netherlands"
IKC Wereldwijs,Textile Collection,52.2952505,4.6914988,"IKC Wereldwijs, Graan voor Visch, Hoofddorp, Haarlemmermeer, North Holland, Netherlands, 2132 VN, Netherlands"
Joris de Witte,Textile Collection,52.1944582,4.47812,"Clare Lennarthof, Morsebel, Oegstgeest, South Holland, Netherlands, 2343 BT, Netherlands"
IBS Er Riseleh,Textile Collection,52.1504341,4.488054,"Basisschool Er Risèlèh, Stadhouderslaan, Staalwijk, Leiden, South Holland, Netherlands, 2313 ZE, Netherlands"
Kerk Pernis - Burg. van Esstraat 46,Textile Collection,51.8909833,4.3874851,"46, Burgemeester van Esstraat, Pernis, Rotterdam, South Holland, Netherlands, 3195 AG, Netherlands"
Bremmer schoenen,Textile Collection,52.0441207,4.6573727,"Bremmer Schoenen, 177, Kerkweg-Oost, Centrum, Waddinxveen, South Holland, Netherlands, 2741 HD, Netherlands"
Plug,Textile Collection,52.4082145,4.8879839,"51, Computerweg, Cornelis Douwesterrein, Noord, Amsterdam, North Holland, Netherlands, 1033 RH, Netherlands"
Stichting Milli Gorus Cafer-i Sadık,Textile Collection,52.3611913,4.8057827,"2, Groenpad, Osdorp, Nieuw-West, Amsterdam, North Holland, Netherlands, 1068 EB, Netherlands"
Dorpsschool De Bron,Textile Collection,52.0543737,4.692503,"21, Dorpsweg, Reeuwijk-Dorp, Reeuwijk, Bodegraven-Reeuwijk, South Holland, Netherlands, 2811 KG, Netherlands"
Sportcentrum de Trits,Textile Collection,52.2197294,5.2863458,"2A, Goeman Borgesiuslaan, Baarn, Utrecht, Netherlands, 3741 CR, Netherlands"
Running&Walkingcenter,Textile Collection,52.128461,4.6633478,"Running & Walkingcenter, 414, Raadhuisstraat, Hoge Zijde, Alphen aan den Rijn, South Holland, Netherlands, 2406 LE, Netherlands"
De Bresser Topmovers,Textile Collection,51.582687,5.192507,"De Bresser Verhuizingen, 13, Schijfstraat, Kerkhoven, Oisterwijk, North Brabant, Netherlands, 5061 KA, Netherlands"
Sevim Akbulut,Textile Collection,51.9193134,4.4674752,"32, Josephstraat, Chinatown, Oude Westen, Centrum, Rotterdam, South Holland, Netherlands, 3014 TP, Netherlands"
Basisschool de Hoogakker,Textile Collection,51.7270279,5.4362384,"25, Schoolstraat, Pelgrimsche Hoeve, Nuland, 's-Hertogenbosch, North Brabant, Netherlands, 5391 AX, Netherlands"
Milieustraat Lansingerland,Textile Collection,51.9864734,4.5196176,"51, Bosland, Hoeksekade, Bergschenhoek, Lansingerland, South Holland, Netherlands, 2661 DV, Netherlands"
Reinis - Sterrenhof,Textile Collection,51.8417932,4.3232644,"New York Pizza, 32, Sterrenhof, Sterrenkwartier, Spijkenisse, Nissewaard, South Holland, Netherlands, 3204 AT, Netherlands"
Reinis - Nico de Regtplein,Textile Collection,51.86192,4.236245,"Gall & Gall, 9, Nico de Regtplein, Heenvliet, Nissewaard, South Holland, Netherlands, 3218 XW, Netherlands"
Reinis - Branderf,Textile Collection,51.86448006,4.24486778,"5, Branderf, Heenvliet, Nissewaard, South Holland, Netherlands, 3218 AC, Netherlands"
Reinis - Damstraat,Textile Collection,51.85081473,4.331961726,"Damstraat, Centrum, Spijkenisse, Nissewaard, South Holland, Netherlands, 3201 DA, Netherlands"
Reinis - Groene Kruisweg,Textile Collection,51.85344674,4.322405969,"Spijkenisse, Rivierabad, 3202 ST Spijkenisse, Netherlands"
Reinis - Selma Lagerlofstraat,Textile Collection,51.82799377,4.371531527,"Selma Lagerlöfstraat 2, 3207 MS Spijkenisse, Netherlands"
Reinis - Groenewoud,Textile Collection,51.83988599,4.338150274,"Groenewoud 6, 3203 AM Spijkenisse, Netherlands"
Moskee Arrahma Den Bosch,Textile Collection,51.698422,5.3002619,"Arrahma Moskee, Vogelstraat, Orthenpoort, 's-Hertogenbosch, North Brabant, Netherlands, 5212 VN, Netherlands"
Reinis - Rembrandstraat,Textile Collection,51.85644036,4.311247992,"Rembrandtstraat 67, 3202 EM Spijkenisse, Netherlands"
Reinis - t Plateau,Textile Collection,51.8540415,4.317020124,"'t Plateau 2, 3202 GM Spijkenisse, Netherlands"
Reinis- Weegschaal,Textile Collection,51.8422101,4.324284,"Weegschaal, Sterrenkwartier, Spijkenisse, Nissewaard, South Holland, Netherlands, 3204 VJ, Netherlands"
Reinis - Vlinderveen,Textile Collection,51.83329718,4.343714936,"Vlinderveen 462, 3205 EM Spijkenisse, Netherlands"
Reinis - Hoeklaan,Textile Collection,51.84644401,4.321027646,"Blauwvoethoek 42, 3201 SC Spijkenisse, Netherlands"
Reinis - Marrewijklaan,Textile Collection,51.84856077,4.327212538,"Marrewijklaan 97, 3201 BH Spijkenisse, Netherlands"
Reinis - Fregat,Textile Collection,51.85353952,4.338887137,"Fregat 13, 3201 LG Spijkenisse, Netherlands"
Reinis - Klokbekerkreek,Textile Collection,51.82805676,4.327110591,"Rozemarijndonk 33-39, 3206 PM Spijkenisse, Netherlands"
Reinis - Winterakker,Textile Collection,51.83394939,4.319275831,"Zomerakker 26, 3206 TH Spijkenisse, Netherlands"
Reinis - Rivierlaan,Textile Collection,51.84718882,4.350402868,"Spijkenisse, IJsselstraat, 3207 BT Spijkenisse, Netherlands"
Reinis - Hadewychplaats,Textile Collection,51.83392121,4.362969039,"Ida Gerhardtplein 50-8, 3207 KG Spijkenisse, Netherlands"
Reinis - Schoollaan,Textile Collection,51.82637586,4.34434645,"Hekelingen, Schoollaan, 3209 AA Hekelingen, Netherlands"
Reinis - Milieustraat Mosterweg,Textile Collection,51.8602468,4.2927173,"Stadswerf, 1, Mosterweg, Spijkenisse, Nissewaard, South Holland, Netherlands, 3202 LT, Netherlands"
Reinis - Prinses Ireneplein,Textile Collection,51.82211529,4.286614557,"Beverwijkstraat 10, 3212 LA Simonshaven, Netherlands"
Reinis - Prinses Julianaplein,Textile Collection,51.86220835,4.259156269,"Pr. Julianaplein 21, 3211 XV Geervliet, Netherlands"
Reinis - Meester P.J. Oudweg,Textile Collection,51.8213941,4.259545436,"Meester P.J. Oudweg 13H, 3214 XN Zuidland, Netherlands"
Reinis - Gemeenlandsedijk Zuid,Textile Collection,51.84811671,4.246557851,"Gemeenlandsedijk Zuid 23, 3216 AH Abbenbroek, Netherlands"
Eyup Sultan Apeldoorn,Textile Collection,52.2101848,5.9714217,"61, Molendwarsstraat, Apeldoorn, Gelderland, Netherlands, 7311 MX, Netherlands"
VSO de Stroom,Textile Collection,51.7843854,4.6541129,"De Stroom, Reeweg Zuid, Wielwijk, Dordrecht, South Holland, Netherlands, 3317 NH, Netherlands"
De Woelige Stal,Textile Collection,52.068322,4.295066,"De Woelige Stal, 80, Herman Costerstraat, Transvaalkwartier, Centrum, The Hague, South Holland, Netherlands, 2571 PH, Netherlands"
Schildershoeve,Textile Collection,52.0688501,4.3058422,"Kinderboerderij, Pieter Lastmanstraat, Schilderswijk, Centrum, The Hague, South Holland, Netherlands, 2526 RL, Netherlands"
Op den Dijk,Textile Collection,52.026762,4.299547,"'t Boekenstalletje, Vogelenzanglaan, Lage Veld, Wateringse Veld, Escamp, The Hague, South Holland, Netherlands, 2548 SX, Netherlands"
De Herweijerhoeve,Textile Collection,52.0587227,4.279637,"Stadsboerderij Herwijerhoeve, Vreeswijkstraat, Zuiderpark, Escamp, The Hague, South Holland, Netherlands, 2546 AA, Netherlands"
De Reigershof,Textile Collection,52.0869157,4.3587404,"Stadsboerderij De Reigershof, 280, Reigersbergenweg, Tuinen van Wils, Haagse Hout, The Hague, South Holland, Netherlands, 2592 EZ, Netherlands"
De Molenweide,Textile Collection,52.0651161,4.334099,"25, Stuwstraat, Molenwijk, Laak, The Hague, South Holland, Netherlands, 2516 TA, Netherlands"
Landzigt,Textile Collection,52.062602,4.398147,"143, Aristoteleslaan, Lanen, Leidschenveen-Ypenburg, The Hague, South Holland, Netherlands, 2493 ZN, Netherlands"
De Kakelhof,Textile Collection,52.0625148,4.2399242,"Kakelhof, Puccinistraat, Nieuw Waldeck, Loosduinen, The Hague, South Holland, Netherlands, 2551 LN, Netherlands"
t Waaygat,Textile Collection,52.1069604,4.2801769,"Stadsboerderij Het Waaygat, 75, Havenkade, Scheveningen, The Hague, South Holland, Netherlands, 2586 TW, Netherlands"
De Gagelhoeve,Textile Collection,52.0699368,4.2663972,"Stadsboerderij Gagelhoeve, Mient, Bloemenbuurt, Segbroek, The Hague, South Holland, Netherlands, 2564 GM, Netherlands"
Wawollie origineel,Textile Collection,52.1243365,5.0406785,"Meteorenweg, Lage Weide, Utrecht, Netherlands, 3542 DW, Netherlands"
RET Kleiweg,Textile Collection,51.9447079,4.4669049,"Kleiweg 244, 3051 SN Rotterdam, Netherlands"
RET 's Gravenweg,Textile Collection,51.9207181,4.5470511,"Nautastraat 2, 3065 SP Rotterdam, Netherlands"
RET Beverwaard,Textile Collection,51.8839732,4.5664106,"Edo Bergsmaweg 100, 3077 PX Rotterdam, Netherlands"
RKBS Fatima,Textile Collection,51.5335732,4.474672,"Doctor Schaepmanlaan 101, 4702 GW Roosendaal, Netherlands"
KBS Nobelaer,Textile Collection,51.6921708,4.2093225,"Julianastraat 13, 3255 BG Oude-Tonge, Netherlands"
Moskee en Nour,Textile Collection,52.2169308,5.4967843,"Tolhuislaan 22, 3862 WL Nijkerk, Netherlands"
Kledingbank Nieuwegein Origineel,Textile Collection,52.0350302,5.0888816,"Vredebestlaan 23, 3431 CG Nieuwegein, Netherlands"
Moskee Furkan Haarlem,Textile Collection,52.35855974,4.64968139,"Wenenstraat 4, 2034 CR Haarlem, Netherlands"
De Achtbaan Calaislaan,Textile Collection,51.486702,5.448727,"Calaislaan 1, 5627 NC Eindhoven, Netherlands"
De Achtbaan Caenlaan,Textile Collection,51.490223,5.444745,"Caenlaan 3, 5627 EV Eindhoven, Netherlands"
Koningin Wilhelmina school,Textile Collection,51.8984506,4.6874369,"Koninginneweg 5, 2941 XH Lekkerkerk, Netherlands"
Het Windas,Textile Collection,51.93364515,4.380980051,"Nachtegaallaan 2, 3121 XP Schiedam, Netherlands"
Krimpenerwaard - Julianaplein 4,Textile Collection,51.9752741,4.8215306,"4, Julianaplein, Vlist, Krimpenerwaard, South Holland, Netherlands, 2855 AM, Netherlands"
Krimpenerwaard - Kivietslaan,Textile Collection,51.9743143,4.7735,"18, Kievitslaan, Stolwijk, Krimpenerwaard, South Holland, Netherlands, 2821 XK, Netherlands"
Krimpenerwaard - Doelenplein 5,Textile Collection,51.9467617,4.8533741,"5, Doelenplein, Schoonhoven, Krimpenerwaard, South Holland, Netherlands, 2871 CV, Netherlands"
Krimpenerwaard - Cellebroedersstraat 33,Textile Collection,51.946538,4.8584057,"29, Cellebroedersstraat, Schoonhoven, Krimpenerwaard, South Holland, Netherlands, 2871 AS, Netherlands"
Krimpenerwaard - Vlierstraat 16,Textile Collection,51.9468234,4.8637059,"16, Vlierstraat, Het Ambacht, Schoonhoven, Krimpenerwaard, South Holland, Netherlands, 2871 RR, Netherlands"
Krimpenerwaard - Albert Plesmanstraat 4,Textile Collection,51.9512652,4.8448678,"Schoonhovens College, 4, Albert Plesmanstraat, Schoonhoven, Krimpenerwaard, South Holland, Netherlands, 2871 HJ, Netherlands"
Krimpenerwaard - Bergambachterstraat 9,Textile Collection,51.9552418,4.8447243,"9, Bergambachterstraat, Schoonhoven, Krimpenerwaard, South Holland, Netherlands, 2871 JB, Netherlands"
Park16hoven Woensdrechtstraat 9,Textile Collection,51.9532419,4.4551595,"13, Woensdrechtstraat, Park 16Hoven, Zestienhoven, Overschie, Rotterdam, South Holland, Netherlands, 3045 PZ, Netherlands"
Park16hoven Tinbergenlaan 50,Textile Collection,51.9483567,4.4536007,"Basisschool Park16Hoven, Tinbergenlaan, Park 16Hoven, Zestienhoven, Overschie, Rotterdam, South Holland, Netherlands, 3045 BK, Netherlands"
Over de Slinge Sommelsdijkstraat 19,Textile Collection,51.8775062,4.4707931,"8, Kerkwervesingel, Pendrecht, Charlois, Rotterdam, South Holland, Netherlands, 3086 HH, Netherlands"
Over de Slinge Krabbendijkestraat 243,Textile Collection,51.8731702,4.4657762,"Over de Slinge, Kloosterzandestraat, Pendrecht, Charlois, Rotterdam, South Holland, Netherlands, 3086 JB, Netherlands"
Krimpenerwaard - Breeweer 1,Textile Collection,51.9658717,4.6417295,"1, Breeweer, Lageweg, Ouderkerk aan den IJssel, Krimpenerwaard, South Holland, Netherlands, 2935 CA, Netherlands"
Krimpenerwaard - Burgemeester Neetstraat 1,Textile Collection,51.9347042,4.6362994,"1, Burgemeester Neetstraat, Ouderkerk aan den IJssel, Krimpenerwaard, South Holland, Netherlands, 2935 BA, Netherlands"
Krimpenerwaard - Rozenlaan 1,Textile Collection,51.9322072,4.6376651,"76, Kerkweg, Ouderkerk aan den IJssel, Krimpenerwaard, South Holland, Netherlands, 2935 AK, Netherlands"
Krimpenerwaard - Geerlaan 1,Textile Collection,51.9282543,4.642842,"1, Geerlaan, Ouderkerk aan den IJssel, Krimpenerwaard, South Holland, Netherlands, 2935 RA, Netherlands"
Kledingbank Nieuwegein geroofd,Textile Collection,52.0350302,5.0888816,"23, Vredebestlaan, Rijndael, Nieuwegein, Utrecht, Netherlands, 3431 CG, Netherlands"
Krimpenerwaard - Potgieterstraat 1,Textile Collection,51.8975253,4.6802839,"1, Potgieterstraat, Lekkerkerk, Krimpenerwaard, South Holland, Netherlands, 2941 GR, Netherlands"
Krimpenerwaard - Weidelaan 1,Textile Collection,51.9036152,4.6888766,"1, Weidelaan, Lekkerkerk, Krimpenerwaard, South Holland, Netherlands, 2941 RJ, Netherlands"
Krimpenerwaard - Groenland 37,Textile Collection,51.8987247,4.6306741,"Groenland, Krimpen aan de Lek, Krimpenerwaard, South Holland, Netherlands, 2931 RA, Netherlands"
Krimpenerwaard - Koningin Julianastraat 77,Textile Collection,51.8937347,4.6276926,"De Markt, Krimpen aan de Lek, Krimpenerwaard, South Holland, Netherlands, 2931 HB, Netherlands"
Krimpenerwaard - Gerard Doustraat 1,Textile Collection,51.8942916,4.6293647,"16, Hoofdstraat, Krimpen aan de Lek, Krimpenerwaard, South Holland, Netherlands, 2931 CK, Netherlands"
Krimpenerwaard - Kleine haven 11,Textile Collection,52.0013753,4.7753253,"13a, Kleine Haven, Haastrecht, Krimpenerwaard, South Holland, Netherlands, 2851 BP, Netherlands"
Krimpenerwaard - Johan Brouckplein 1,Textile Collection,51.9839262,4.6760371,"1, Johan Brouckplein, Gouderak, Krimpenerwaard, South Holland, Netherlands, 2831 XV, Netherlands"
Krimpenerwaard - Kerkweg 1,Textile Collection,51.94553797,4.708479676,"Kerkweg 1, 2825 BP Berkenwoude, Netherlands"
Krimpenerwaard - Milieustraat Veerweg,Textile Collection,51.9250702,4.7817991,"51.9250702, 4.7817991"
Krimpenerwaard - Meidoornstraat 84,Textile Collection,51.9338695,4.7903846,"84, Meidoornstraat, Bergambacht, Krimpenerwaard, South Holland, Netherlands, 2861 VK, Netherlands"
Krimpenerwaard - Pleinstraat 9,Textile Collection,51.9352524,4.7851481,"9, Pleinstraat, Bergambacht, Krimpenerwaard, South Holland, Netherlands, 2861 XE, Netherlands"
Krimpenerwaard - Dijklaan 15,Textile Collection,51.9292214,4.7853952,"15, Dijklaan, Bergstoep, Bergambacht, Krimpenerwaard, South Holland, Netherlands, 2861 EK, Netherlands"
Krimpenerwaard - Kerkplein 4,Textile Collection,51.9269549,4.808883,"PKN Ned Hervormd, Kerkplein, Ammerstol, Krimpenerwaard, South Holland, Netherlands, 2865 XT, Netherlands"
ISN Ulu Zwolle,Textile Collection,52.523793,6.0905608,"Gombertstraat, Holtenbroek, Zwolle, Overijssel, Netherlands, 8031 LC, Netherlands"
SPON de Steenen Kamer,Textile Collection,51.8276538,4.6505403,"De Steenen Kamer, Hoofdland, Prinsessenbuurt, Zwijndrecht, South Holland, Netherlands, 3332 RG, Netherlands"
KBS de Toermalijn,Textile Collection,51.815935,4.6509657,"8, Anna Paulownastraat, Westkeetshaven, Zwijndrecht, South Holland, Netherlands, 3331 AA, Netherlands"
Kindcentrum Juliana,Textile Collection,51.8182209,4.647592,"30, Juliana van Stolbergstraat, Centrum, Zwijndrecht, South Holland, Netherlands, 3331 BJ, Netherlands"
KC De Notenbalk,Textile Collection,51.8203858,4.6071886,"26b, Bazuinstraat, Heer Oudelands' Ambacht, Zwijndrecht, South Holland, Netherlands, 3335 DD, Netherlands"
Nehemia Zwijndrecht,Textile Collection,51.8164121,4.6325857,"Nehemia Ministries, H.A. Lorentzstraat, Develpoort, Zwijndrecht, South Holland, Netherlands, 3331 EE, Netherlands"
ISN Barbaros Zutphen,Textile Collection,52.1421415,6.1994413,"Barbaros Islamitische Stichting, 6, David Evekinkstraat, Waterkwartier, De Hoven, Zutphen, Gelderland, Netherlands, 7201 BT, Netherlands"
IKC De Triangel,Textile Collection,52.0663529,4.5186324,"De Triangel, 33, Vlasakker, Segwaert, Zoetermeer, South Holland, Netherlands, 2723 TP, Netherlands"
ISN Oranje Kultur Merkezi Zoetermeer,Textile Collection,52.0515756,4.5018787,"Islamitische Stichting Nederland / Oranje Cultureel Centrum Zoetermeer, Schoolstraat, Palenstein, Zoetermeer, South Holland, Netherlands, 2712 VC, Netherlands"
Kindcentrum Koningskwartier,Textile Collection,52.00859088,4.592824696,"Koning Willem-Alexanderlaan 261, 2761 JP Zevenhuizen, Netherlands"
Stichting Europa Oost-Turkistan Educatie Centrum,Textile Collection,52.0918602,5.2408904,"Nojz Creatieve Communicatie, 163, Van Reenenweg, Zeist, Utrecht, Netherlands, 3702 SJ, Netherlands"
Coop Bremmer,Textile Collection,52.1155298,4.8362011,"3, Middenweg, Zegveld, Woerden, Utrecht, Netherlands, 3474 KC, Netherlands"
Mili Gorus Zaandam,Textile Collection,52.440218,4.8291171,"1, Steve Bikoplein, Zaandam, Zaanstad, North Holland, Netherlands, 1501 PX, Netherlands"
SWS De Wereldweide,Textile Collection,52.1696802,4.633164,"SWS De Wereldweide, van Hoogstratenlaan, Woubrugge, Kaag en Braassem, South Holland, Netherlands, 2481 XC, Netherlands"
Gereformeerde Kerk Woubrugge,Textile Collection,52.1699021,4.6383971,"PKN Gereformeerd, van Hemessenkade, Woubrugge, Kaag en Braassem, South Holland, Netherlands, 2481 BH, Netherlands"
Sint Jan Baptist,Textile Collection,52.1442878,4.4135417,"Basisschool St. Jan Baptist, Violierenweg, Deijleroord, Wassenaar, South Holland, Netherlands, 2241 XP, Netherlands"
IKC Kleurrijk,Textile Collection,52.0534431,4.6549889,"Kleurrijk, 3, Jacob Catslaan, Vondelwijk, Waddinxveen, South Holland, Netherlands, 2741 XL, Netherlands"
ISN Anadolu Waddinxveen,Textile Collection,52.055591,4.6541736,"Lokale Omroep Waddinveen, Staringlaan, Vondelwijk, Waddinxveen, South Holland, Netherlands, 2741 XX, Netherlands"
Archipelschool De Omnibus,Textile Collection,51.4624928,3.5719734,"3, Slangenburg, Bossenburgh, Lammerenburg, Vlissingen, Zeeland, Netherlands, 4385 HT, Netherlands"
Kindcentrum de Ark | Baarnhoeve,Textile Collection,51.9390303,4.3542995,"Kunst BSO de Ark, 4, Baarnhoeve, Hoevenbuurt, Vlaardingen, South Holland, Netherlands, 3137 RL, Netherlands"
Kindcentrum de Ark |Lissabonweg,Textile Collection,51.9351449,4.3508032,"Basisschool De Ark, Lissabonweg, Hoofdstedenbuurt, Vlaardingen, South Holland, Netherlands, 3137 LR, Netherlands"
CBS Het Anker,Textile Collection,51.934629,4.3383936,"5, Glidkruid, Kruidenbuurt, Vlaardingen, South Holland, Netherlands, 3137 WG, Netherlands"
Zonnehuis,Textile Collection,51.9247228,4.3501178,"Het Zonnehuis, 5, Dillenburgsingel, Statenbuurt, Vlaardingen, South Holland, Netherlands, 3136 EA, Netherlands"
OBS Klimop Vlaardingen,Textile Collection,51.9262619,4.3511146,"1, Stadhouderslaan, Statenbuurt, Vlaardingen, South Holland, Netherlands, 3136 BK, Netherlands"
ISN Eyup Sultan Vlaardingen,Textile Collection,51.9068053,4.3468699,"Eyüp Sultan Moskee, Hendrik Kikkertplaats, Nieuw Sluis, Vlaardingen, South Holland, Netherlands, 3134 NM, Netherlands"
Obs De Singel Vlaardingen,Textile Collection,51.9346395,4.3366659,"1, Muskuskruid, Kruidenbuurt, Vlaardingen, South Holland, Netherlands, 3137 WH, Netherlands"
Stichting Ummet Vlaardingen,Textile Collection,51.9102603,4.349737,"71, Emmastraat, Oostwijk, Vlaardingen, South Holland, Netherlands, 3134 CH, Netherlands"
Sint Jozefschool,Textile Collection,52.2141985,4.9314988,"De Sint Jozefschool, 1, Tuinderslaantje, Dorp, Achterbos, Vinkeveen, De Ronde Venen, Utrecht, Netherlands, 3645 EX, Netherlands"
OBS De Tiende Penning,Textile Collection,51.8783314,4.1783254,"'t Dijckhuis, Dijckpotingen, Vierpolders, Voorne aan Zee, South Holland, Netherlands, 3237 AK, Netherlands"
ISN Veghel Selimiye,Textile Collection,51.6080659,5.5462679,"5, Evertsenstraat, Leest, Doornhoek, Veghel, Meierijstad, North Brabant, Netherlands, 5463 HM, Netherlands"
ISN Ihlas Veenendaal,Textile Collection,52.0257754,5.5668935,"Íhlas Camíí, Pollux, Veenendaal, Utrecht, Netherlands, 3902 TA, Netherlands"
Van Asch van Wijckschool,Textile Collection,52.0962472,5.091217,"Van Asch van Wijckschool, 85, Louis Couperusstraat, Lombok, Utrecht, Netherlands, 3532 CX, Netherlands"
Mili Gorus Utrecht,Textile Collection,52.1042329,5.0977219,"Mili Görüş Utrecht Mescid-i Aksa, 18, Royaards van den Hamkade, Ondiep, Utrecht, Netherlands, 3552 CM, Netherlands"
Wawollie Utrecht,Textile Collection,52.1242478,5.0411309,"59, Maarssenbroeksedijk, Lage Weide, Utrecht, Netherlands, 3542 DM, Netherlands"
Emmaus Overvecht,Textile Collection,52.1145731,5.1094122,"201, Gloriantdreef, Winkelcentrum Overvecht, Utrecht, Netherlands, 3562 KW, Netherlands"
ISN Eyup Sultan Utrecht,Textile Collection,52.0758049,5.0944484,"Eyup Sultan, 3, Bernadottelaan, Kanaleneiland, Utrecht, Netherlands, 3527 GA, Netherlands"
Stichting Milli Gorus Uden,Textile Collection,51.6619036,5.6266321,"Süleymaniye, President Kennedylaan, Uden, Maashorst, North Brabant, Netherlands, 5402 KB, Netherlands"
ISN Ahmet Yesevi Tiel,Textile Collection,51.8863989,5.4371692,"20, Koornmarkt, Sterrebos, Tiel, Gelderland, Netherlands, 4001 KW, Netherlands"
Basisschool Stellegors,Textile Collection,51.8051817,4.0278072,"OBS Stellegors, Meidoornstraat, Stellendam, Goeree-Overflakkee, South Holland, Netherlands, 3251 CV, Netherlands"
Kerk Stellendam,Textile Collection,51.8004239,4.0216646,"Beth-El Kerk, Voorstraat, Stellendam, Goeree-Overflakkee, South Holland, Netherlands, 3251 PB, Netherlands"
MGR Bekkerschool Spijkenisse,Textile Collection,51.8421469,4.3377473,"61, Eikenlaan, Groenewoud, Spijkenisse, Nissewaard, South Holland, Netherlands, 3203 BG, Netherlands"
Vereniging N.T.O. Spijkenisse,Textile Collection,51.8546466,4.3158197,"2, A M de Jongstraat, Schiekamp, Spijkenisse, Nissewaard, South Holland, Netherlands, 3202 AD, Netherlands"
2e Van der Huchtschool,Textile Collection,52.1679666,5.2790833,"2e van der Huchtschool, Libel, Soest, Utrecht, Netherlands, 3766 HH, Netherlands"
Insingerschool,Textile Collection,52.1619476,5.2752276,"59, Insingerstraat, Soest, Utrecht, Netherlands, 3766 MA, Netherlands"
School met de Bijbel,Textile Collection,51.5973262,4.1026013,"Zo, 40, Schoolstraat, Sint-Annaland, Tholen, Zeeland, Netherlands, 4697 CL, Netherlands"
Kringloop Zeeland Serooskerke,Textile Collection,51.5422335,3.5924984,"3, De Zompe, Serooskerke, Veere, Zeeland, Netherlands, 4353 RT, Netherlands"
Workman,Textile Collection,51.9320427,4.3985393,"508, Fokkerstraat, Spaanse Polder, Windas, Schiedam, South Holland, Netherlands, 3125 BE, Netherlands"
IKC Kethel,Textile Collection,51.9357115,4.3767449,"Vlaardingseweg, Kethel, Windas, Schiedam, South Holland, Netherlands, 3121 JM, Netherlands"
Retourette/AH Schiedam,Textile Collection,51.9073733,4.4016823,"115, Groenelaan, De Gorzen, Schiedam, South Holland, Netherlands, 3114 CE, Netherlands"
Islamitisch Centrum Yildiz Schiedam,Textile Collection,51.9157661,4.381192,"Islamitisch Centrum Schiedam, 5, Doctor Schaepmansingel, Nieuwland, Schiedam, South Holland, Netherlands, 3118 XH, Netherlands"
ISN Muradiye Schiedam,Textile Collection,51.9188329,4.3974488,"4, Raam, Schiedam, South Holland, Netherlands, 3111 PL, Netherlands"
Fridtjof Nansen,Textile Collection,51.9649935,4.5456139,"Fridtjof Nansen Basisschool, 2-8, Nansenplaats, Romeijnshof, Ommoord, Prins Alexander, Rotterdam, South Holland, Netherlands, 3069 CV, Netherlands"
Goede Herderkerk,Textile Collection,51.9580125,4.4674856,"Goede Herder, Wilgenplaslaan, Schiebroek, Hillegersberg-Schiebroek, Rotterdam, South Holland, Netherlands, 3053 CD, Netherlands"
Klaver-Heijplaat,Textile Collection,51.8949151,4.4199681,"15, Vestastraat, Heijplaat, Charlois, Rotterdam, South Holland, Netherlands, 3089 RL, Netherlands"
Kindcentrum IJsselmonde,Textile Collection,51.8876616,4.5598602,"SBO van Heuven Goedhart, 251, Oosterhagen, Groenenhagen-Tuinenhoven, Groot-IJsselmonde, IJsselmonde, Rotterdam, South Holland, Netherlands, 3078 CL, Netherlands"
OBS de Waterlelie,Textile Collection,51.9648227,4.5763817,"Koevordermeer, Zevenkamp, Prins Alexander, Rotterdam, South Holland, Netherlands, 3068 KS, Netherlands"
Albert Plesman IKC,Textile Collection,51.9551337,4.5387097,"Haakdistel, Machielencamp, Ommoord, Prins Alexander, Rotterdam, South Holland, Netherlands, 3068 ND, Netherlands"
De Bergse veld school,Textile Collection,51.9574019,4.5136345,"150, Mozartlaan, Molenlaankwartier, Hillegersberg-Schiebroek, Rotterdam, South Holland, Netherlands, 3055 KM, Netherlands"
Vrije School Rotterdam West,Textile Collection,51.9222784,4.4593025,"Vrijeschool Rotterdam-West, 7-11, Velsenluststraat, Middelland, Delfshaven, Rotterdam, South Holland, Netherlands, 3021 AW, Netherlands"
School de Plevier,Textile Collection,51.85891984,4.377214438,"Plevier 64, 3191 GA Hoogvliet Rotterdam, Netherlands"
Dakpark school,Textile Collection,51.907832,4.4423955,"Catharina Beersmansstraat 80, 3025 EJ Rotterdam, Netherlands"
De Kleine Prins Rotterdam,Textile Collection,51.9411108,4.5416623,"19, Van Bassenstraat, Het Lage Land, Prins Alexander, Rotterdam, South Holland, Netherlands, 3067 XC, Netherlands"
Gultepe Moskee,Textile Collection,51.9311926,4.4825934,"137, Erasmusstraat, Oude Noorden, Noord, Rotterdam, South Holland, Netherlands, 3035 LD, Netherlands"
Laurens den Hoogenban Rotterdam,Textile Collection,51.9316332,4.4316748,"31, Van der Sasstraat, Kleinpolder-West, Kleinpolder, Overschie, Rotterdam, South Holland, Netherlands, 3042 NM, Netherlands"
Stichting Birlik Rotterdam,Textile Collection,51.896784,4.4997407,"53A, Blazoenstraat, Bloemhof, Feijenoord, Rotterdam, South Holland, Netherlands, 3073 HB, Netherlands"
ISN Ulu Rotterdam,Textile Collection,51.9297384,4.504974,"267, Oudedijk, Kralingen-West, Kralingen-Crooswijk, Rotterdam, South Holland, Netherlands, 3061 AK, Netherlands"
Stichting Huis van de wijk De Nieuwe Nachtegaal,Textile Collection,51.8848527,4.4676438,"21, Mezenhof, Oud-Charlois, Charlois, Rotterdam, South Holland, Netherlands, 3082 ZE, Netherlands"
ISN Mevlana Rotterdam,Textile Collection,51.9212856,4.4415014,"Mevlana moskee, Mevlanaplein, Nieuwe Westen, Delfshaven, Rotterdam, South Holland, Netherlands, 3022 EP, Netherlands"
Hockey Club Rotterdam,Textile Collection,51.9682355,4.4843116,"HC Rotterdam, Ankie Verbeek-Ohrlaan, Schiebroek, Hillegersberg-Schiebroek, Rotterdam, South Holland, Netherlands, 3054 WH, Netherlands"
ISN Laleli Rotterdam,Textile Collection,51.8884252,4.4743853,"9, Gruttostraat, Carnisse, Charlois, Rotterdam, South Holland, Netherlands, 3083 KZ, Netherlands"
Transvalia ZW,Textile Collection,51.8659993,4.4666119,"Kalverpad, Charlois, Rotterdam, South Holland, Netherlands, 3084 LP, Netherlands"
ISN Kocatepe Rotterdam,Textile Collection,51.8991406,4.5027071,"40A, Afrikaanderplein, Afrikaanderwijk, Feijenoord, Rotterdam, South Holland, Netherlands, 3072 EC, Netherlands"
Stichting Mescidi Ravza Rotterdam,Textile Collection,51.91701683,4.464503976,"Bajonetstraat 55B, 3014 ZC Rotterdam, Netherlands"
OBS de Singel,Textile Collection,51.5337176,4.4618385,"O.B.S. De Singel, 87, Burgemeester Prinsensingel, Roosendaal, North Brabant, Netherlands, 4701 HL, Netherlands"
De Klimroos,Textile Collection,51.43154238,4.11382307,"Hinkelingestraat 8, 4413 AG Krabbendijke, Netherlands"
Kerk Pernis - Ring 1,Textile Collection,51.8875822,4.3936784,"Ring 1, 3195 XB Pernis, Netherlands"
De Kameleon,Textile Collection,51.8281424,4.6809266,"De Kameleon, Schoolstraat, Papendrecht, South Holland, Netherlands, 3351 ED, Netherlands"
OBS De Wielen,Textile Collection,51.829607,4.7012325,"1, P. Zandtstraat, Papendrecht, South Holland, Netherlands, 3354 AT, Netherlands"
OBS Die Heenetrecht,Textile Collection,51.5681073,4.1966425,"obs Die Heenetrecht, Burgemeester Versluijsstraat, Oud-Vossemeer, Tholen, Zeeland, Netherlands, 4698 AS, Netherlands"
Basisschool Keuchenius,Textile Collection,51.824016,4.4011035,"Uitloop, Boerderijbuurt, Oud-Beijerland, Hoeksche Waard, South Holland, Netherlands, 3262 CE, Netherlands"
Archipelschool Tweemaster-kameleon,Textile Collection,51.4691323,3.6025211,"Tweemaster-Kameleon, Roerstraat, Groot-Abeele, Oost-Souburg, Vlissingen, Zeeland, Netherlands, 4388 RV, Netherlands"
ISN Ahmet Yesevi Oosterhout,Textile Collection,51.6430283,4.8636653,"Ahmet Yesevi Moskee, 57, Klappeijstraat, Slotjes, Oosterhout, North Brabant, Netherlands, 4901 HD, Netherlands"
Kayori,Textile Collection,52.116838,6.223289,"Sippenbroek 2, 7207 BZ Zutphen"
Aldi Nieuwerkerk,Textile Collection,51.9616211,4.5888491,"64, Hoofdweg-Zuid, Nieuwerkerk aan den IJssel, Zuidplas, South Holland, Netherlands, 2912 EE, Netherlands"
De Lonneboot,Textile Collection,51.4819427,3.6581841,"1, Van Akenstraat, Nieuw- en Sint Joosland, Middelburg, Zeeland, Netherlands, 4339 BR, Netherlands"
Archipelschool Het Element,Textile Collection,51.4917995,3.6290165,"Archipelschool het Element, Zwerfruststraat, Dauwendaele, Middelburg, Zeeland, Netherlands, 4337 VN, Netherlands"
ISN Yeni Maassluis,Textile Collection,51.9264416,4.2465717,"Yeni Cami, Mozartlaan, Kapelpolder, Maassluis, South Holland, Netherlands, 3144 BJ, Netherlands"
Kringloop Maasdijk,Textile Collection,51.9604658,4.2108174,"6B, Maasambacht, De 4E Hoeve, Maasdijk, Westland, South Holland, Netherlands, 2676 CW, Netherlands"
Wereldkidz Bontenest,Textile Collection,52.1376085,5.0171836,"'t Bontenest, Spechtenkamp, Maarssenbroek, Maarssen, Stichtse Vecht, Utrecht, Netherlands, 3607 KN, Netherlands"
WereldKidz Merseberch,Textile Collection,52.0583826,5.4074176,"28, van Beuningenlaan, Maarsbergen, Utrechtse Heuvelrug, Utrecht, Netherlands, 3953 BR, Netherlands"
WereldKidz Meent,Textile Collection,52.0646208,5.3758965,"Trompplein, Maarn, Utrechtse Heuvelrug, Utrecht, Netherlands, 3951 CW, Netherlands"
Jenaplanschool de Waterval,Textile Collection,52.2447228,4.556435,"De Waterval, Frans Halsstraat, Poelpolder, Lisse, South Holland, Netherlands, 2162 CL, Netherlands"
OBS de Bongerd,Textile Collection,52.1363495,5.4393054,"36d, Asschatterweg, Alandsbeek, Leusden, Utrecht, Netherlands, 3831 JT, Netherlands"
Moskee Fatih Sultan Leiden,Textile Collection,52.147908,4.467449,"Da Vinci College ISK, Johan Wagenaarlaan, Boshuizen, Leiden, South Holland, Netherlands, 2324 XD, Netherlands"
Weggeefwinkel Leiden,Textile Collection,52.1586775,4.4972371,"Vestingwerken van Leiden, Vrouwenkerkkoorstraat, De Camp, Leiden, South Holland, Netherlands, 2312 WP, Netherlands"
ISN Mimar Sinan Leiden,Textile Collection,52.1669188,4.5076935,"Mimar Sinanmoskee, Kooiplein, Noord, Leiden, South Holland, Netherlands, 2315 XV, Netherlands"
Basisschool Radewijnsz,Textile Collection,51.8989077,5.0911707,"RKBS Floris Radewijnsz, Drossaardslaan, Leerdam-Noord, Leerdam, Vijfheerenlanden, Utrecht, Netherlands, 4143 BD, Netherlands"
ISN Anadolu Leerdam,Textile Collection,51.8862834,5.0825918,"3, Tulpstraat, Leerdam-West, Leerdam, Vijfheerenlanden, Utrecht, Netherlands, 4142 XS, Netherlands"
Stichting Sociaal Centrum De Brug Leerdam,Textile Collection,51.8910326,5.0868919,"J.P.S. De Wilgenhoek, Tiendweg, Leerdam-West, Leerdam, Vijfheerenlanden, Utrecht, Netherlands, 4142 AA, Netherlands"
Waldorf aan Zee,Textile Collection,52.454897,4.6209649,"Sportloket Velsen - Heerenduinzaal, 43, Heerenduinweg, IJmuiden, Velsen, North Holland, Netherlands, 1971 JA, Netherlands"
Ecokring Houten,Textile Collection,52.0392662,5.1461756,"De Ecokring Houten, 9a, Peppelkade, Doornkade, Oud-Wulven, Houten, Utrecht, Netherlands, 3992 AL, Netherlands"
Moskee Ar-Rahman,Textile Collection,52.2956844,4.6887186,"Ar-Rahman, Graan voor Visch, Hoofddorp, Haarlemmermeer, North Holland, Netherlands, 2132 XA, Netherlands"
ISN Hoofddorp,Textile Collection,52.3139158,4.6904426,"Broekermeerstraat 119, 2131 AR Hoofddorp, Netherlands"
Willem Farelschool,Textile Collection,52.1704695,5.4639334,"Willem Farelschool, 9, Dassenburcht, Hoevelaken, Nijkerk, Gelderland, Netherlands, 3871 JM, Netherlands"
ISN Mevlana Hilversum,Textile Collection,52.2285599,5.1818647,"Mevlana moskee, 27, Geuzenweg, Johannes Geradtswegbuurt, Hilversum, North Holland, Netherlands, 1221 BK, Netherlands"
Savioschool,Textile Collection,52.2955391,4.5842111,"Daltonschool Hillegom, Prinses Irenelaan, Weerestein, Hillegom, South Holland, Netherlands, 2181 CV, Netherlands"
Dierentehuis 's-Hertogenbosch,Textile Collection,51.6916275,5.3472563,"Dierentehuis 's-Hertogenbosch, 41, Oosterplasweg, Aawijk-Zuid, Zuidoost, 's-Hertogenbosch, North Brabant, Netherlands, 5215 HT, Netherlands"
ISN Orhan Gazi 's-Hertogenbosch,Textile Collection,51.6946295,5.2700988,"Orhman Gazi, Lagemorgenlaan, De Schutskamp, West, 's-Hertogenbosch, North Brabant, Netherlands, 5223 HW, Netherlands"
VV Nieuwenhoorn,Textile Collection,51.8522608,4.1404703,"v.v. Nieuwenhoorn, Theo Kwantenstraat, Nieuwenhoorn, Hellevoetsluis, Voorne aan Zee, South Holland, Netherlands, 3223 CG, Netherlands"
ISN Eyup Sultan Hellevoetsluis,Textile Collection,51.8378847,4.1290037,"2, Moriaanseweg West, Dorp en Hoonaart, Hellevoetsluis, Voorne aan Zee, South Holland, Netherlands, 3222 AD, Netherlands"
Stichting Sein Heemstede,Textile Collection,52.3414896,4.6232919,"Herenhuis, 5, Achterweg, Heemstede, North Holland, Netherlands, 2103 SW, Netherlands"
PCB Johannes Post,Textile Collection,52.0991232,4.5949071,"Johannes Postschool, Sportparklaan, Hazerswoude-Dorp, Alphen aan den Rijn, South Holland, Netherlands, 2391 AX, Netherlands"
S.B.B.H Harderwijk,Textile Collection,52.3367556,5.6298904,"24, Gelreweg, Harderwijk, Gelderland, Netherlands, 3843 AN, Netherlands"
ISN Harderwijk,Textile Collection,52.3443539,5.6437204,"Mehmet Akif Moskee, Thorbeckelaan, Harderwijk, Gelderland, Netherlands, 3842 GX, Netherlands"
Samenwerkingsschool De Pelikaan,Textile Collection,51.9998369,4.7779099,"Grote Haven, Haastrecht, Krimpenerwaard, South Holland, Netherlands, 2851 BM, Netherlands"
Milli Gorus Fatih Haarlem,Textile Collection,52.4140889,4.6452525,"4C, Generaal Spoorlaan, Haarlem, North Holland, Netherlands, 2025 NB, Netherlands"
Verkoopschuur Grijpskerke Kringloop,Textile Collection,51.5336321,3.5676805,"27, Hondegemsweg, Grijpskerke, Veere, Zeeland, Netherlands, 4364 RA, Netherlands"
Terres des Hommes,Textile Collection,52.01097963,4.708504943,"Lange Groenendaal 51, 2801 LR Gouda, Netherlands"
Friends4Charity,Textile Collection,51.8376689,4.972908,"Gomarus Scholengemeenschap, Nicolaas Pieckstraat, Haarwijk, Gorinchem, South Holland, Netherlands, 4205 BR, Netherlands"
ISN Suleyman Celebi Gorinchem,Textile Collection,51.8477367,4.9695974,"Suleyman Celebi Moskee, Hoefslag, Schotdeuren, Gorinchem, South Holland, Netherlands, 4205 NK, Netherlands"
Cbs Prinses Beatrix,Textile Collection,51.4907601,3.8881942,"Prinses Beatrixschool, 103, Elvis Presleylaan, Ouverture, Goes, Zeeland, Netherlands, 4462 LB, Netherlands"
De Vier Heemskinderen,Textile Collection,51.564277,4.644055,"Basisschool De Vier Heemskinderen, Heilig Hartstraat, Banakkers, Etten-Leur, North Brabant, Netherlands, 4873 CC, Netherlands"
Hockeyclub Etten-Leur,Textile Collection,51.5638712,4.657022,"Olympiade, Hooghuis, Vaartkant, Etten-Leur, North Brabant, Netherlands, 4873 DW, Netherlands"
BS Willibrordus Esch,Textile Collection,51.61341,5.2911697,"Willibrordusschool, Postelstraat, Esch, Boxtel, North Brabant, Netherlands, 5296 LN, Netherlands"
ISN Hz. Omer Epe,Textile Collection,52.3462438,5.9978919,"18, Oenerweg, Epe, Gelderland, Netherlands, 8161 PN, Netherlands"
De Talisman,Textile Collection,51.421314,5.489867,"De Talisman, 9, Seringenstraat, Gerardusplein, Stratum, Eindhoven, North Brabant, Netherlands, 5644 PK, Netherlands"
Emmaus Eindhoven,Textile Collection,51.424278,5.463775,"Orthodox Parish of Saint Nektarios, Hoogstraat, Rapelenburg, Gestel, Eindhoven, North Brabant, Netherlands, 5654 NH, Netherlands"
Internationale School Eindhoven,Textile Collection,51.4647129,5.4304738,"Oirschotsedijk, Strijp, Eindhoven, North Brabant, Netherlands, 5651 GC, Netherlands"
Stichting Turkse Gemeenschap Mevlana Eindhoven,Textile Collection,51.439175,5.515887,"2, Jan van Riebeecklaan, Doornakkers-Oost, Tongelre, Eindhoven, North Brabant, Netherlands, 5642 MD, Netherlands"
ISN Haci Bayram Veli Drunen,Textile Collection,51.6882392,5.1342551,"Haci Bayram Veli Moskee, Wilhelminastraat, Drunen, Heusden, North Brabant, Netherlands, 5151 BZ, Netherlands"
Haci Bayram Driebergen,Textile Collection,52.0463725,5.2929923,"1, Akkerweg, Driebergen-Rijsenburg, Utrechtse Heuvelrug, Utrecht, Netherlands, 3972 AA, Netherlands"
Stichting Vluchtelingkinderen Driebergen,Textile Collection,52.0540347,5.2887367,"Eurowinkel, 73, Oranjelaan, Traaij, Driebergen-Rijsenburg, Utrechtse Heuvelrug, Utrecht, Netherlands, 3971 HE, Netherlands"
Julianaschool,Textile Collection,51.7889744,4.7053834,"Julianaschool, Elzenlaan, Dubbeldam, Dordrecht, South Holland, Netherlands, 3319 VC, Netherlands"
ISN Anadolu Doesburg,Textile Collection,52.0100017,6.1431434,"20, Oranjesingel, Beinum, Doesburg, Gelderland, Netherlands, 6981 GZ, Netherlands"
ISN Selimiye Dieren,Textile Collection,52.049624,6.1060873,"Selimiye Moskee, 30a, Enkweg, Dieren, Rheden, Gelderland, Netherlands, 6951 BV, Netherlands"
ISN Merkez Deventer,Textile Collection,52.2604285,6.1609146,"ISN Deventer Centrum Moskee, Burgemeester Van Heemstralaan, Oosterstraat, Voorstad, Deventer, Overijssel, Netherlands, 7413 BE, Netherlands"
Kind Centrum De Balans,Textile Collection,52.070265,4.405563,"Kindcentrum Balans, Klaverveld, Velden, Leidschenveen-Ypenburg, The Hague, South Holland, Netherlands, 2492 MA, Netherlands"
Koos Meindersschool,Textile Collection,52.0619288,4.2470053,"Albardastraat 25, 2555 XP Den Haag, Netherlands"
Drielinden,Textile Collection,52.0727107,4.2695999,"4, 2e Braamstraat, Valkenboskwartier, Segbroek, The Hague, South Holland, Netherlands, 2563 HK, Netherlands"
Tamarschool,Textile Collection,52.0505322,4.2790191,"Tamarschool, Maartensdijklaan, Morgenstond-Oost, Morgenstond, Escamp, The Hague, South Holland, Netherlands, 2541 VH, Netherlands"
OG Heldringschool,Textile Collection,52.0814934,4.2562471,"O.G. Heldringschool, Sperwerlaan, Vogelwijk, Segbroek, The Hague, South Holland, Netherlands, 2566 VM, Netherlands"
Nutsbasisschool Boldingh,Textile Collection,52.0843529,4.2762789,"2e Schuytstraat, Scheveningen, The Hague, South Holland, Netherlands, 2517 SB, Netherlands"
Moskee Ondort Masumlar,Textile Collection,52.0636332,4.3053448,"On Dort Masumlar Cami, Fabritiusstraat, Vermeerkwartier, Centrum, The Hague, South Holland, Netherlands, 2525 VE, Netherlands"
ISN Ahi Evran Den Haag,Textile Collection,52.0446433,4.2552951,"Isn Ahi Evran Camii Moskee, Vredeoord, Bouwlust, Escamp, The Hague, South Holland, Netherlands, 2544 TR, Netherlands"
HWW Zorg Moerwijk Den Haag,Textile Collection,52.0493474,4.3076631,"236, Twickelstraat, Moerwijk, Escamp, The Hague, South Holland, Netherlands, 2531 RE, Netherlands"
Stichting Educatie Integratie en Cultuur Hizan,Textile Collection,52.0367863,4.2584905,"Sporthal Zuidhaghe, 625H, Beresteinlaan, Bouwlust, Escamp, The Hague, South Holland, Netherlands, 2542 JR, Netherlands"
Widar,Textile Collection,52.0122974,4.3420854,"Widar, 2, De Meesterstraat, Agnetapark, Hof van Delft, Delft, South Holland, Netherlands, 2613 XB, Netherlands"
ISN Sultan Ahmet Delft,Textile Collection,51.9966338,4.3478678,"Sultan Ahmet Moskee, Componistenpad, Juniusbuurt, Buitenhof, Delft, South Holland, Netherlands, 2625 GB, Netherlands"
Stichting Sein Cruquius,Textile Collection,52.3338077,4.6515107,"Cruquiushoeve, Spieringweg, Landgoed Wickevoort, Cruquius, Haarlemmermeer, North Holland, Netherlands, 2142 ED, Netherlands"
Daltonschool de Vijfster,Textile Collection,51.9174806,4.5454009,"4, 1e Articuslaan, Fascinatio, Capelle aan den IJssel, South Holland, Netherlands, 2909 TB, Netherlands"
SVS Voetbal,Textile Collection,51.9395378,4.5735768,"31, Capelseweg, Schenkel, Capelle aan den IJssel, South Holland, Netherlands, 2907 XA, Netherlands"
Moskee Haci Bayram Bunschoten,Textile Collection,52.2453357,5.3598023,"HDV Haci Bayram moskee, 88, Bikkersweg, Bunschoten-Spakenburg, Bunschoten, Utrecht, Netherlands, 3752 WV, Netherlands"
Basisschool de Akker,Textile Collection,52.0756242,4.6653929,"RKBS De Akker, Populierenhof, Boskoop, Alphen aan den Rijn, South Holland, Netherlands, 2771 DG, Netherlands"
De Brielse Veste,Textile Collection,51.9020087,4.1618018,"vestingwerken van Brielle, Thoelaverweg, Brielle, Voorne aan Zee, South Holland, Netherlands, 3231 KD, Netherlands"
Van Dijckschool,Textile Collection,52.1362884,5.2086481,"van Dijckschool, Van Dijcklaan, Bilthoven, De Bilt, Utrecht, Netherlands, 3723 CE, Netherlands"
De Sterrekijker,Textile Collection,52.4971566,4.6680592,"Fokkerlaan, Meerestein, Beverwijk, North Holland, Netherlands, 1945 VC, Netherlands"
ISN Aksemsettin Beverwijk,Textile Collection,52.4854826,4.6652617,"44, Zweedselaan, Oranjebuurt, Beverwijk, North Holland, Netherlands, 1947 HX, Netherlands"
ISN Mescid-i Kuba Best,Textile Collection,51.505406,5.390617,"31, Michiel de Ruijterstraat, Naastenbest, Best, North Brabant, Netherlands, 5684 BK, Netherlands"
ISN Ulu Bergen op zoom,Textile Collection,51.4863183,4.3049751,"ULU, Van Heelulaan, Warande, Bergen op Zoom, North Brabant, Netherlands, 4624 BM, Netherlands"
Dr Schaepschool Marijkesingel,Textile Collection,51.8497635,4.5492826,"Dr. Schaepmanschool (Marijkesingel), Ziedewijdsedijk, Oranjewijk, Barendrecht, South Holland, Netherlands, 2991 DL, Netherlands"
T Vierschip,Textile Collection,51.5072971,3.6742764,"’t Vierschip, Oostgat, Arnemuiden, Middelburg, Zeeland, Netherlands, 4341 LE, Netherlands"
Moskee Assalaam Apeldoorn,Textile Collection,52.2072184,5.9626591,"8, Tenderlaan, Apeldoorn, Gelderland, Netherlands, 7331 AJ, Netherlands"
Moskee Eyup Sultan Amsterdam,Textile Collection,52.3533992,4.9172612,"15D, Joubertstraat, Transvaalbuurt, Oost, Amsterdam, North Holland, Netherlands, 1091 XN, Netherlands"
Moskee Ayasofya milli gorus Amsterdam,Textile Collection,52.3661696,4.8603753,"Westermoskee, Van Speijkstraat, De Baarsjes, West, Amsterdam, North Holland, Netherlands, 1057 GK, Netherlands"
BSO Blauwe Lijn,Textile Collection,52.3153442,4.9714978,"Kopkewierpad, Bijlmer, Zuidoost, Amsterdam, North Holland, Netherlands, 1104 KX, Netherlands"
Kringloopcentrum Zuidoost,Textile Collection,52.2952611,4.9443902,"24, Schepenbergweg, Amstel III, Zuidoost, Amsterdam, North Holland, Netherlands, 1105 AT, Netherlands"
ISN Emir Sultan Amsterdam,Textile Collection,52.4005092,4.9442164,"Emir Sultan Moskee, Savelsbos, Buikslotermeer, Noord, Zunderdorp, Amsterdam, North Holland, Netherlands, 1025 BL, Netherlands"
Stichting Islamitisch Centrum Nieuw West - Slotermeer,Textile Collection,52.3831359,4.8221709,"Stichting Saray, 152, Slotermeerlaan, Slotermeer, Nieuw-West, Amsterdam, North Holland, Netherlands, 1063 JW, Netherlands"
Stichting Regenboog Amsterdam,Textile Collection,52.3820604,4.849425,"1, Sara Burgerhartstraat, Landlust, West, Amsterdam, North Holland, Netherlands, 1055 KV, Netherlands"
ISN Haci Bayram Amsterdam,Textile Collection,52.3585461,4.7892965,"Haci Bayram Camii Osdorp, Baden Powellweg, De Punt, Nieuw-West, Sloten, Amsterdam, North Holland, Netherlands, 1069 LM, Netherlands"
Stichting Kumbet Amsterdam,Textile Collection,52.3767565,4.8054454,"225-4, Burgemeester Röellstraat, Geuzenveld, Nieuw-West, Amsterdam, North Holland, Netherlands, 1067 ND, Netherlands"
Stichting Islamic Relief Nederland,Textile Collection,52.3596204,4.9389266,"Gerardus Majellakerk, 4, Obiplein, Indische Buurt, Oost, Amsterdam, North Holland, Netherlands, 1094 RE, Netherlands"
GBS de Regenboog,Textile Collection,52.1707166,5.3923404,"2, Reinaartpad, Schothorst, Amersfoort, Utrecht, Netherlands, 3813 KM, Netherlands"
OBS de Dubbelster,Textile Collection,52.1856738,5.3865201,"obs De Dubbelster, Bruggensingel-Zuid, Kattenbroek, Amersfoort, Utrecht, Netherlands, 3823 BL, Netherlands"
Stichting Masjid El Fath,Textile Collection,52.1653164,5.4016733,"Moskee El Fath, 156, Zangvogelweg, Liendert, Amersfoort, Utrecht, Netherlands, 3815 DR, Netherlands"
De Fontein,Textile Collection,52.1208501,4.6496706,"P.C. Basisschool De Fontein, De Oude Wereld, Ecolonia, Alphen aan den Rijn, South Holland, Netherlands, 2408 JT, Netherlands"
ISN Alblasserdam,Textile Collection,51.8686868,4.6619392,"2, Anjerstraat, Alblasserdam, South Holland, Netherlands, 2951 BA, Netherlands"
